{"type":"FeatureCollection","features":[{"type":"Feature","geometry":{"type":"Polygon","coordinates":[[[133.13125,34.24583333333334],[133.1375,34.24583333333334],[133.1375,34.25000000000001],[133.13125,34.25000000000001],[133.13125,34.24583333333334]]]},"properties":{"type":"Feature","mesh_id":"513321904","municipality_code":"38356","municipality":"上島町","total_population":94,"population_65plus":40,"population_75plus":26,"aging_rate_65plus":0.425531914893617,"aging_rate_75plus":0.2765957446808511,"population_status":"0","population_status_target":null,"population_aggregation_target":null,"age_65plus_missing":false,"age_75plus_missing":false,"age_quality_flag":"ok","data_completeness":"complete"}},{"type":"Feature","geometry":{"type":"Polygon","coordinates":[[[133.1375,34.24583333333334],[133.14374999999998,34.24583333333334],[133.14374999999998,34.25000000000001],[133.1375,34.25000000000001],[133.1375,34.24583333333334]]]},"properties":{"type":"Feature","mesh_id":"513321912","municipality_code":"38356","municipality":"上島町","total_population":108,"population_65plus":50,"population_75plus":30,"aging_rate_65plus":0.46296296296296297,"aging_rate_75plus":0.2777777777777778,"population_status":"0","population_status_target":null,"population_aggregation_target":null,"age_65plus_missing":false,"age_75plus_missing":false,"age_quality_flag":"ok","data_completeness":"complete"}},{"type":"Feature","geometry":{"type":"Polygon","coordinates":[[[133.14374999999998,34.24583333333334],[133.14999999999998,34.24583333333334],[133.14999999999998,34.25000000000001],[133.14374999999998,34.25000000000001],[133.14374999999998,34.24583333333334]]]},"properties":{"type":"Feature","mesh_id":"513321914","municipality_code":"38356","municipality":"上島町","total_population":435,"population_65plus":206,"population_75plus":106,"aging_rate_65plus":0.4735632183908046,"aging_rate_75plus":0.24367816091954023,"population_status":"0","population_status_target":null,"population_aggregation_target":null,"age_65plus_missing":false,"age_75plus_missing":false,"age_quality_flag":"ok","data_completeness":"complete"}},{"type":"Feature","geometry":{"type":"Polygon","coordinates":[[[133.15625,34.24166666666667],[133.1625,34.24166666666667],[133.1625,34.24583333333334],[133.15625,34.24583333333334],[133.15625,34.24166666666667]]]},"properties":{"type":"Feature","mesh_id":"513321923","municipality_code":"38356","municipality":"上島町","total_population":185,"population_65plus":101,"population_75plus":50,"aging_rate_65plus":0.5459459459459459,"aging_rate_75plus":0.2702702702702703,"population_status":"1","population_status_target":null,"population_aggregation_target":"513321921","age_65plus_missing":false,"age_75plus_missing":false,"age_quality_flag":"ok","data_completeness":"complete"}},{"type":"Feature","geometry":{"type":"Polygon","coordinates":[[[133.1875,34.24166666666667],[133.19375,34.24166666666667],[133.19375,34.24583333333334],[133.1875,34.24583333333334],[133.1875,34.24166666666667]]]},"properties":{"type":"Feature","mesh_id":"513321951","municipality_code":"38356","municipality":"上島町","total_population":5,"population_65plus":null,"population_75plus":null,"aging_rate_65plus":null,"aging_rate_75plus":null,"population_status":"2","population_status_target":"513321953","population_aggregation_target":null,"age_65plus_missing":true,"age_75plus_missing":true,"age_quality_flag":"ok","data_completeness":"partial"}},{"type":"Feature","geometry":{"type":"Polygon","coordinates":[[[133.2,34.24166666666667],[133.20624999999998,34.24166666666667],[133.20624999999998,34.24583333333334],[133.2,34.24583333333334],[133.2,34.24166666666667]]]},"properties":{"type":"Feature","mesh_id":"513321961","municipality_code":"38356","municipality":"上島町","total_population":12,"population_65plus":12,"population_75plus":4,"aging_rate_65plus":1.0,"aging_rate_75plus":0.3333333333333333,"population_status":"1","population_status_target":null,"population_aggregation_target":"513321863","age_65plus_missing":false,"age_75plus_missing":false,"age_quality_flag":"ok","data_completeness":"complete"}},{"type":"Feature","geometry":{"type":"Polygon","coordinates":[[[133.20624999999998,34.24166666666667],[133.21249999999998,34.24166666666667],[133.21249999999998,34.24583333333334],[133.20624999999998,34.24583333333334],[133.20624999999998,34.24166666666667]]]},"properties":{"type":"Feature","mesh_id":"513321963","municipality_code":"38356","municipality":"上島町","total_population":27,"population_65plus":15,"population_75plus":10,"aging_rate_65plus":0.5555555555555556,"aging_rate_75plus":0.37037037037037035,"population_status":"0","population_status_target":null,"population_aggregation_target":null,"age_65plus_missing":false,"age_75plus_missing":false,"age_quality_flag":"ok","data_completeness":"complete"}},{"type":"Feature","geometry":{"type":"Polygon","coordinates":[[[133.20624999999998,34.24583333333334],[133.21249999999998,34.24583333333334],[133.21249999999998,34.25000000000001],[133.20624999999998,34.25000000000001],[133.20624999999998,34.24583333333334]]]},"properties":{"type":"Feature","mesh_id":"513321964","municipality_code":"38356","municipality":"上島町","total_population":444,"population_65plus":11,"population_75plus":8,"aging_rate_65plus":0.024774774774774775,"aging_rate_75plus":0.018018018018018018,"population_status":"1","population_status_target":null,"population_aggregation_target":"513321973","age_65plus_missing":false,"age_75plus_missing":false,"age_quality_flag":"ok","data_completeness":"complete"}},{"type":"Feature","geometry":{"type":"Polygon","coordinates":[[[133.31875,34.175],[133.325,34.175],[133.325,34.17916666666667],[133.31875,34.17916666666667],[133.31875,34.175]]]},"properties":{"type":"Feature","mesh_id":"513322153","municipality_code":"38356","municipality":"上島町","total_population":5,"population_65plus":null,"population_75plus":null,"aging_rate_65plus":null,"aging_rate_75plus":null,"population_status":"2","population_status_target":"513322154","population_aggregation_target":null,"age_65plus_missing":true,"age_75plus_missing":true,"age_quality_flag":"ok","data_completeness":"partial"}},{"type":"Feature","geometry":{"type":"Polygon","coordinates":[[[133.26874999999998,34.1875],[133.27499999999998,34.1875],[133.27499999999998,34.19166666666667],[133.26874999999998,34.19166666666667],[133.26874999999998,34.1875]]]},"properties":{"type":"Feature","mesh_id":"513322214","municipality_code":"38356","municipality":"上島町","total_population":1,"population_65plus":null,"population_75plus":null,"aging_rate_65plus":null,"aging_rate_75plus":null,"population_status":"2","population_status_target":"513322154","population_aggregation_target":null,"age_65plus_missing":true,"age_75plus_missing":true,"age_quality_flag":"ok","data_completeness":"partial"}},{"type":"Feature","geometry":{"type":"Polygon","coordinates":[[[133.13125,34.25416666666667],[133.1375,34.25416666666667],[133.1375,34.25833333333334],[133.13125,34.25833333333334],[133.13125,34.25416666666667]]]},"properties":{"type":"Feature","mesh_id":"513331004","municipality_code":"38356","municipality":"上島町","total_population":4,"population_65plus":null,"population_75plus":null,"aging_rate_65plus":null,"aging_rate_75plus":null,"population_status":"2","population_status_target":"513331002","population_aggregation_target":null,"age_65plus_missing":true,"age_75plus_missing":true,"age_quality_flag":"ok","data_completeness":"partial"}},{"type":"Feature","geometry":{"type":"Polygon","coordinates":[[[133.1375,34.25416666666667],[133.14374999999998,34.25416666666667],[133.14374999999998,34.25833333333334],[133.1375,34.25833333333334],[133.1375,34.25416666666667]]]},"properties":{"type":"Feature","mesh_id":"513331012","municipality_code":"38356","municipality":"上島町","total_population":23,"population_65plus":8,"population_75plus":4,"aging_rate_65plus":0.34782608695652173,"aging_rate_75plus":0.17391304347826086,"population_status":"0","population_status_target":null,"population_aggregation_target":null,"age_65plus_missing":false,"age_75plus_missing":false,"age_quality_flag":"ok","data_completeness":"complete"}},{"type":"Feature","geometry":{"type":"Polygon","coordinates":[[[133.15,34.25],[133.15625,34.25],[133.15625,34.25416666666667],[133.15,34.25416666666667],[133.15,34.25]]]},"properties":{"type":"Feature","mesh_id":"513331021","municipality_code":"38356","municipality":"上島町","total_population":36,"population_65plus":15,"population_75plus":9,"aging_rate_65plus":0.4166666666666667,"aging_rate_75plus":0.25,"population_status":"1","population_status_target":null,"population_aggregation_target":"513331022;513331024","age_65plus_missing":false,"age_75plus_missing":false,"age_quality_flag":"ok","data_completeness":"complete"}},{"type":"Feature","geometry":{"type":"Polygon","coordinates":[[[133.15,34.25416666666667],[133.15625,34.25416666666667],[133.15625,34.25833333333334],[133.15,34.25833333333334],[133.15,34.25416666666667]]]},"properties":{"type":"Feature","mesh_id":"513331022","municipality_code":"38356","municipality":"上島町","total_population":12,"population_65plus":null,"population_75plus":null,"aging_rate_65plus":null,"aging_rate_75plus":null,"population_status":"2","population_status_target":"513331021","population_aggregation_target":null,"age_65plus_missing":true,"age_75plus_missing":true,"age_quality_flag":"ok","data_completeness":"partial"}},{"type":"Feature","geometry":{"type":"Polygon","coordinates":[[[133.15625,34.25416666666667],[133.1625,34.25416666666667],[133.1625,34.25833333333334],[133.15625,34.25833333333334],[133.15625,34.25416666666667]]]},"properties":{"type":"Feature","mesh_id":"513331024","municipality_code":"38356","municipality":"上島町","total_population":8,"population_65plus":null,"population_75plus":null,"aging_rate_65plus":null,"aging_rate_75plus":null,"population_status":"2","population_status_target":"513331021","population_aggregation_target":null,"age_65plus_missing":true,"age_75plus_missing":true,"age_quality_flag":"ok","data_completeness":"partial"}},{"type":"Feature","geometry":{"type":"Polygon","coordinates":[[[133.175,34.25416666666667],[133.18125,34.25416666666667],[133.18125,34.25833333333334],[133.175,34.25833333333334],[133.175,34.25416666666667]]]},"properties":{"type":"Feature","mesh_id":"513331042","municipality_code":"38356","municipality":"上島町","total_population":110,"population_65plus":66,"population_75plus":34,"aging_rate_65plus":0.6,"aging_rate_75plus":0.3090909090909091,"population_status":"0","population_status_target":null,"population_aggregation_target":null,"age_65plus_missing":false,"age_75plus_missing":false,"age_quality_flag":"ok","data_completeness":"complete"}},{"type":"Feature","geometry":{"type":"Polygon","coordinates":[[[133.1875,34.25],[133.19375,34.25],[133.19375,34.25416666666667],[133.1875,34.25416666666667],[133.1875,34.25]]]},"properties":{"type":"Feature","mesh_id":"513331051","municipality_code":"38356","municipality":"上島町","total_population":206,"population_65plus":125,"population_75plus":70,"aging_rate_65plus":0.6067961165048543,"aging_rate_75plus":0.33980582524271846,"population_status":"0","population_status_target":null,"population_aggregation_target":null,"age_65plus_missing":false,"age_75plus_missing":false,"age_quality_flag":"ok","data_completeness":"complete"}},{"type":"Feature","geometry":{"type":"Polygon","coordinates":[[[133.1875,34.25416666666667],[133.19375,34.25416666666667],[133.19375,34.25833333333334],[133.1875,34.25833333333334],[133.1875,34.25416666666667]]]},"properties":{"type":"Feature","mesh_id":"513331052","municipality_code":"38356","municipality":"上島町","total_population":10,"population_65plus":null,"population_75plus":null,"aging_rate_65plus":null,"aging_rate_75plus":null,"population_status":"2","population_status_target":"513331054","population_aggregation_target":null,"age_65plus_missing":true,"age_75plus_missing":true,"age_quality_flag":"ok","data_completeness":"partial"}},{"type":"Feature","geometry":{"type":"Polygon","coordinates":[[[133.19375,34.25],[133.2,34.25],[133.2,34.25416666666667],[133.19375,34.25416666666667],[133.19375,34.25]]]},"properties":{"type":"Feature","mesh_id":"513331053","municipality_code":"38356","municipality":"上島町","total_population":47,"population_65plus":33,"population_75plus":16,"aging_rate_65plus":0.7021276595744681,"aging_rate_75plus":0.3404255319148936,"population_status":"0","population_status_target":null,"population_aggregation_target":null,"age_65plus_missing":false,"age_75plus_missing":false,"age_quality_flag":"ok","data_completeness":"complete"}},{"type":"Feature","geometry":{"type":"Polygon","coordinates":[[[133.2,34.25],[133.20624999999998,34.25],[133.20624999999998,34.25416666666667],[133.2,34.25416666666667],[133.2,34.25]]]},"properties":{"type":"Feature","mesh_id":"513331061","municipality_code":"38356","municipality":"上島町","total_population":136,"population_65plus":53,"population_75plus":28,"aging_rate_65plus":0.3897058823529412,"aging_rate_75plus":0.20588235294117646,"population_status":"0","population_status_target":null,"population_aggregation_target":null,"age_65plus_missing":false,"age_75plus_missing":false,"age_quality_flag":"ok","data_completeness":"complete"}},{"type":"Feature","geometry":{"type":"Polygon","coordinates":[[[133.2,34.25416666666667],[133.20624999999998,34.25416666666667],[133.20624999999998,34.25833333333334],[133.2,34.25833333333334],[133.2,34.25416666666667]]]},"properties":{"type":"Feature","mesh_id":"513331062","municipality_code":"38356","municipality":"上島町","total_population":19,"population_65plus":9,"population_75plus":5,"aging_rate_65plus":0.47368421052631576,"aging_rate_75plus":0.2631578947368421,"population_status":"0","population_status_target":null,"population_aggregation_target":null,"age_65plus_missing":false,"age_75plus_missing":false,"age_quality_flag":"ok","data_completeness":"complete"}},{"type":"Feature","geometry":{"type":"Polygon","coordinates":[[[133.20624999999998,34.25],[133.21249999999998,34.25],[133.21249999999998,34.25416666666667],[133.20624999999998,34.25416666666667],[133.20624999999998,34.25]]]},"properties":{"type":"Feature","mesh_id":"513331063","municipality_code":"38356","municipality":"上島町","total_population":267,"population_65plus":120,"population_75plus":74,"aging_rate_65plus":0.449438202247191,"aging_rate_75plus":0.27715355805243447,"population_status":"0","population_status_target":null,"population_aggregation_target":null,"age_65plus_missing":false,"age_75plus_missing":false,"age_quality_flag":"ok","data_completeness":"complete"}},{"type":"Feature","geometry":{"type":"Polygon","coordinates":[[[133.13125,34.2625],[133.1375,34.2625],[133.1375,34.26666666666667],[133.13125,34.26666666666667],[133.13125,34.2625]]]},"properties":{"type":"Feature","mesh_id":"513331104","municipality_code":"38356","municipality":"上島町","total_population":30,"population_65plus":12,"population_75plus":11,"aging_rate_65plus":0.4,"aging_rate_75plus":0.36666666666666664,"population_status":"0","population_status_target":null,"population_aggregation_target":null,"age_65plus_missing":false,"age_75plus_missing":false,"age_quality_flag":"ok","data_completeness":"complete"}},{"type":"Feature","geometry":{"type":"Polygon","coordinates":[[[133.14374999999998,34.25833333333333],[133.14999999999998,34.25833333333333],[133.14999999999998,34.2625],[133.14374999999998,34.2625],[133.14374999999998,34.25833333333333]]]},"properties":{"type":"Feature","mesh_id":"513331113","municipality_code":"38356","municipality":"上島町","total_population":7,"population_65plus":null,"population_75plus":null,"aging_rate_65plus":null,"aging_rate_75plus":null,"population_status":"2","population_status_target":"513331211","population_aggregation_target":null,"age_65plus_missing":true,"age_75plus_missing":true,"age_quality_flag":"ok","data_completeness":"partial"}},{"type":"Feature","geometry":{"type":"Polygon","coordinates":[[[133.15,34.2625],[133.15625,34.2625],[133.15625,34.26666666666667],[133.15,34.26666666666667],[133.15,34.2625]]]},"properties":{"type":"Feature","mesh_id":"513331122","municipality_code":"38356","municipality":"上島町","total_population":46,"population_65plus":18,"population_75plus":13,"aging_rate_65plus":0.391304347826087,"aging_rate_75plus":0.2826086956521739,"population_status":"0","population_status_target":null,"population_aggregation_target":null,"age_65plus_missing":false,"age_75plus_missing":false,"age_quality_flag":"ok","data_completeness":"complete"}},{"type":"Feature","geometry":{"type":"Polygon","coordinates":[[[133.15625,34.2625],[133.1625,34.2625],[133.1625,34.26666666666667],[133.15625,34.26666666666667],[133.15625,34.2625]]]},"properties":{"type":"Feature","mesh_id":"513331124","municipality_code":"38356","municipality":"上島町","total_population":60,"population_65plus":31,"population_75plus":15,"aging_rate_65plus":0.5166666666666667,"aging_rate_75plus":0.25,"population_status":"0","population_status_target":null,"population_aggregation_target":null,"age_65plus_missing":false,"age_75plus_missing":false,"age_quality_flag":"ok","data_completeness":"complete"}},{"type":"Feature","geometry":{"type":"Polygon","coordinates":[[[133.1625,34.25833333333333],[133.16875,34.25833333333333],[133.16875,34.2625],[133.1625,34.2625],[133.1625,34.25833333333333]]]},"properties":{"type":"Feature","mesh_id":"513331131","municipality_code":"38356","municipality":"上島町","total_population":15,"population_65plus":0,"population_75plus":0,"aging_rate_65plus":0.0,"aging_rate_75plus":0.0,"population_status":"0","population_status_target":null,"population_aggregation_target":null,"age_65plus_missing":false,"age_75plus_missing":false,"age_quality_flag":"ok","data_completeness":"complete"}},{"type":"Feature","geometry":{"type":"Polygon","coordinates":[[[133.16875,34.2625],[133.17499999999998,34.2625],[133.17499999999998,34.26666666666667],[133.16875,34.26666666666667],[133.16875,34.2625]]]},"properties":{"type":"Feature","mesh_id":"513331134","municipality_code":"38356","municipality":"上島町","total_population":17,"population_65plus":12,"population_75plus":4,"aging_rate_65plus":0.7058823529411765,"aging_rate_75plus":0.23529411764705882,"population_status":"0","population_status_target":null,"population_aggregation_target":null,"age_65plus_missing":false,"age_75plus_missing":false,"age_quality_flag":"ok","data_completeness":"complete"}},{"type":"Feature","geometry":{"type":"Polygon","coordinates":[[[133.175,34.25833333333333],[133.18125,34.25833333333333],[133.18125,34.2625],[133.175,34.2625],[133.175,34.25833333333333]]]},"properties":{"type":"Feature","mesh_id":"513331141","municipality_code":"38356","municipality":"上島町","total_population":5,"population_65plus":null,"population_75plus":null,"aging_rate_65plus":null,"aging_rate_75plus":null,"population_status":"2","population_status_target":"513331142","population_aggregation_target":null,"age_65plus_missing":true,"age_75plus_missing":true,"age_quality_flag":"ok","data_completeness":"partial"}},{"type":"Feature","geometry":{"type":"Polygon","coordinates":[[[133.175,34.2625],[133.18125,34.2625],[133.18125,34.26666666666667],[133.175,34.26666666666667],[133.175,34.2625]]]},"properties":{"type":"Feature","mesh_id":"513331142","municipality_code":"38356","municipality":"上島町","total_population":48,"population_65plus":32,"population_75plus":17,"aging_rate_65plus":0.6666666666666666,"aging_rate_75plus":0.3541666666666667,"population_status":"1","population_status_target":null,"population_aggregation_target":"513331141","age_65plus_missing":false,"age_75plus_missing":false,"age_quality_flag":"ok","data_completeness":"complete"}},{"type":"Feature","geometry":{"type":"Polygon","coordinates":[[[133.18125,34.25833333333333],[133.1875,34.25833333333333],[133.1875,34.2625],[133.18125,34.2625],[133.18125,34.25833333333333]]]},"properties":{"type":"Feature","mesh_id":"513331143","municipality_code":"38356","municipality":"上島町","total_population":27,"population_65plus":15,"population_75plus":8,"aging_rate_65plus":0.5555555555555556,"aging_rate_75plus":0.2962962962962963,"population_status":"0","population_status_target":null,"population_aggregation_target":null,"age_65plus_missing":false,"age_75plus_missing":false,"age_quality_flag":"ok","data_completeness":"complete"}},{"type":"Feature","geometry":{"type":"Polygon","coordinates":[[[133.18125,34.2625],[133.1875,34.2625],[133.1875,34.26666666666667],[133.18125,34.26666666666667],[133.18125,34.2625]]]},"properties":{"type":"Feature","mesh_id":"513331144","municipality_code":"38356","municipality":"上島町","total_population":99,"population_65plus":53,"population_75plus":31,"aging_rate_65plus":0.5353535353535354,"aging_rate_75plus":0.31313131313131315,"population_status":"0","population_status_target":null,"population_aggregation_target":null,"age_65plus_missing":false,"age_75plus_missing":false,"age_quality_flag":"ok","data_completeness":"complete"}},{"type":"Feature","geometry":{"type":"Polygon","coordinates":[[[133.2,34.25833333333333],[133.20624999999998,34.25833333333333],[133.20624999999998,34.2625],[133.2,34.2625],[133.2,34.25833333333333]]]},"properties":{"type":"Feature","mesh_id":"513331161","municipality_code":"38356","municipality":"上島町","total_population":291,"population_65plus":169,"population_75plus":102,"aging_rate_65plus":0.5807560137457045,"aging_rate_75plus":0.35051546391752575,"population_status":"1","population_status_target":null,"population_aggregation_target":"513331152;513331154","age_65plus_missing":false,"age_75plus_missing":false,"age_quality_flag":"ok","data_completeness":"complete"}},{"type":"Feature","geometry":{"type":"Polygon","coordinates":[[[133.2,34.2625],[133.20624999999998,34.2625],[133.20624999999998,34.26666666666667],[133.2,34.26666666666667],[133.2,34.2625]]]},"properties":{"type":"Feature","mesh_id":"513331162","municipality_code":"38356","municipality":"上島町","total_population":41,"population_65plus":22,"population_75plus":11,"aging_rate_65plus":0.5365853658536586,"aging_rate_75plus":0.2682926829268293,"population_status":"0","population_status_target":null,"population_aggregation_target":null,"age_65plus_missing":false,"age_75plus_missing":false,"age_quality_flag":"ok","data_completeness":"complete"}},{"type":"Feature","geometry":{"type":"Polygon","coordinates":[[[133.20624999999998,34.25833333333333],[133.21249999999998,34.25833333333333],[133.21249999999998,34.2625],[133.20624999999998,34.2625],[133.20624999999998,34.25833333333333]]]},"properties":{"type":"Feature","mesh_id":"513331163","municipality_code":"38356","municipality":"上島町","total_population":85,"population_65plus":47,"population_75plus":15,"aging_rate_65plus":0.5529411764705883,"aging_rate_75plus":0.17647058823529413,"population_status":"0","population_status_target":null,"population_aggregation_target":null,"age_65plus_missing":false,"age_75plus_missing":false,"age_quality_flag":"ok","data_completeness":"complete"}},{"type":"Feature","geometry":{"type":"Polygon","coordinates":[[[133.1375,34.266666666666666],[133.14374999999998,34.266666666666666],[133.14374999999998,34.270833333333336],[133.1375,34.270833333333336],[133.1375,34.266666666666666]]]},"properties":{"type":"Feature","mesh_id":"513331211","municipality_code":"38356","municipality":"上島町","total_population":8,"population_65plus":5,"population_75plus":5,"aging_rate_65plus":0.625,"aging_rate_75plus":0.625,"population_status":"1","population_status_target":null,"population_aggregation_target":"513331113","age_65plus_missing":false,"age_75plus_missing":false,"age_quality_flag":"ok","data_completeness":"complete"}},{"type":"Feature","geometry":{"type":"Polygon","coordinates":[[[133.1375,34.270833333333336],[133.14374999999998,34.270833333333336],[133.14374999999998,34.275000000000006],[133.1375,34.275000000000006],[133.1375,34.270833333333336]]]},"properties":{"type":"Feature","mesh_id":"513331212","municipality_code":"38356","municipality":"上島町","total_population":94,"population_65plus":37,"population_75plus":15,"aging_rate_65plus":0.39361702127659576,"aging_rate_75plus":0.1595744680851064,"population_status":"0","population_status_target":null,"population_aggregation_target":null,"age_65plus_missing":false,"age_75plus_missing":false,"age_quality_flag":"ok","data_completeness":"complete"}},{"type":"Feature","geometry":{"type":"Polygon","coordinates":[[[133.14374999999998,34.266666666666666],[133.14999999999998,34.266666666666666],[133.14999999999998,34.270833333333336],[133.14374999999998,34.270833333333336],[133.14374999999998,34.266666666666666]]]},"properties":{"type":"Feature","mesh_id":"513331213","municipality_code":"38356","municipality":"上島町","total_population":20,"population_65plus":8,"population_75plus":2,"aging_rate_65plus":0.4,"aging_rate_75plus":0.1,"population_status":"0","population_status_target":null,"population_aggregation_target":null,"age_65plus_missing":false,"age_75plus_missing":false,"age_quality_flag":"ok","data_completeness":"complete"}},{"type":"Feature","geometry":{"type":"Polygon","coordinates":[[[133.14374999999998,34.270833333333336],[133.14999999999998,34.270833333333336],[133.14999999999998,34.275000000000006],[133.14374999999998,34.275000000000006],[133.14374999999998,34.270833333333336]]]},"properties":{"type":"Feature","mesh_id":"513331214","municipality_code":"38356","municipality":"上島町","total_population":114,"population_65plus":38,"population_75plus":20,"aging_rate_65plus":0.3333333333333333,"aging_rate_75plus":0.17543859649122806,"population_status":"0","population_status_target":null,"population_aggregation_target":null,"age_65plus_missing":false,"age_75plus_missing":false,"age_quality_flag":"ok","data_completeness":"complete"}},{"type":"Feature","geometry":{"type":"Polygon","coordinates":[[[133.15,34.266666666666666],[133.15625,34.266666666666666],[133.15625,34.270833333333336],[133.15,34.270833333333336],[133.15,34.266666666666666]]]},"properties":{"type":"Feature","mesh_id":"513331221","municipality_code":"38356","municipality":"上島町","total_population":85,"population_65plus":36,"population_75plus":9,"aging_rate_65plus":0.4235294117647059,"aging_rate_75plus":0.10588235294117647,"population_status":"1","population_status_target":null,"population_aggregation_target":"513331223","age_65plus_missing":false,"age_75plus_missing":false,"age_quality_flag":"ok","data_completeness":"complete"}},{"type":"Feature","geometry":{"type":"Polygon","coordinates":[[[133.15,34.270833333333336],[133.15625,34.270833333333336],[133.15625,34.275000000000006],[133.15,34.275000000000006],[133.15,34.270833333333336]]]},"properties":{"type":"Feature","mesh_id":"513331222","municipality_code":"38356","municipality":"上島町","total_population":65,"population_65plus":0,"population_75plus":0,"aging_rate_65plus":0.0,"aging_rate_75plus":0.0,"population_status":"0","population_status_target":null,"population_aggregation_target":null,"age_65plus_missing":false,"age_75plus_missing":false,"age_quality_flag":"ok","data_completeness":"complete"}},{"type":"Feature","geometry":{"type":"Polygon","coordinates":[[[133.15625,34.266666666666666],[133.1625,34.266666666666666],[133.1625,34.270833333333336],[133.15625,34.270833333333336],[133.15625,34.266666666666666]]]},"properties":{"type":"Feature","mesh_id":"513331223","municipality_code":"38356","municipality":"上島町","total_population":56,"population_65plus":null,"population_75plus":null,"aging_rate_65plus":null,"aging_rate_75plus":null,"population_status":"2","population_status_target":"513331221","population_aggregation_target":null,"age_65plus_missing":true,"age_75plus_missing":true,"age_quality_flag":"ok","data_completeness":"partial"}},{"type":"Feature","geometry":{"type":"Polygon","coordinates":[[[133.16875,34.270833333333336],[133.17499999999998,34.270833333333336],[133.17499999999998,34.275000000000006],[133.16875,34.275000000000006],[133.16875,34.270833333333336]]]},"properties":{"type":"Feature","mesh_id":"513331234","municipality_code":"38356","municipality":"上島町","total_population":233,"population_65plus":134,"population_75plus":63,"aging_rate_65plus":0.575107296137339,"aging_rate_75plus":0.2703862660944206,"population_status":"1","population_status_target":null,"population_aggregation_target":"513331233","age_65plus_missing":false,"age_75plus_missing":false,"age_quality_flag":"ok","data_completeness":"complete"}},{"type":"Feature","geometry":{"type":"Polygon","coordinates":[[[133.175,34.266666666666666],[133.18125,34.266666666666666],[133.18125,34.270833333333336],[133.175,34.270833333333336],[133.175,34.266666666666666]]]},"properties":{"type":"Feature","mesh_id":"513331241","municipality_code":"38356","municipality":"上島町","total_population":42,"population_65plus":25,"population_75plus":12,"aging_rate_65plus":0.5952380952380952,"aging_rate_75plus":0.2857142857142857,"population_status":"0","population_status_target":null,"population_aggregation_target":null,"age_65plus_missing":false,"age_75plus_missing":false,"age_quality_flag":"ok","data_completeness":"complete"}},{"type":"Feature","geometry":{"type":"Polygon","coordinates":[[[133.175,34.270833333333336],[133.18125,34.270833333333336],[133.18125,34.275000000000006],[133.175,34.275000000000006],[133.175,34.270833333333336]]]},"properties":{"type":"Feature","mesh_id":"513331242","municipality_code":"38356","municipality":"上島町","total_population":259,"population_65plus":162,"population_75plus":113,"aging_rate_65plus":0.6254826254826255,"aging_rate_75plus":0.4362934362934363,"population_status":"0","population_status_target":null,"population_aggregation_target":null,"age_65plus_missing":false,"age_75plus_missing":false,"age_quality_flag":"ok","data_completeness":"complete"}},{"type":"Feature","geometry":{"type":"Polygon","coordinates":[[[133.18125,34.266666666666666],[133.1875,34.266666666666666],[133.1875,34.270833333333336],[133.18125,34.270833333333336],[133.18125,34.266666666666666]]]},"properties":{"type":"Feature","mesh_id":"513331243","municipality_code":"38356","municipality":"上島町","total_population":300,"population_65plus":157,"population_75plus":70,"aging_rate_65plus":0.5233333333333333,"aging_rate_75plus":0.23333333333333334,"population_status":"0","population_status_target":null,"population_aggregation_target":null,"age_65plus_missing":false,"age_75plus_missing":false,"age_quality_flag":"ok","data_completeness":"complete"}},{"type":"Feature","geometry":{"type":"Polygon","coordinates":[[[133.2,34.266666666666666],[133.20624999999998,34.266666666666666],[133.20624999999998,34.270833333333336],[133.2,34.270833333333336],[133.2,34.266666666666666]]]},"properties":{"type":"Feature","mesh_id":"513331261","municipality_code":"38356","municipality":"上島町","total_population":194,"population_65plus":91,"population_75plus":52,"aging_rate_65plus":0.4690721649484536,"aging_rate_75plus":0.26804123711340205,"population_status":"0","population_status_target":null,"population_aggregation_target":null,"age_65plus_missing":false,"age_75plus_missing":false,"age_quality_flag":"ok","data_completeness":"complete"}},{"type":"Feature","geometry":{"type":"Polygon","coordinates":[[[133.20624999999998,34.266666666666666],[133.21249999999998,34.266666666666666],[133.21249999999998,34.270833333333336],[133.20624999999998,34.270833333333336],[133.20624999999998,34.266666666666666]]]},"properties":{"type":"Feature","mesh_id":"513331263","municipality_code":"38356","municipality":"上島町","total_population":23,"population_65plus":16,"population_75plus":7,"aging_rate_65plus":0.6956521739130435,"aging_rate_75plus":0.30434782608695654,"population_status":"0","population_status_target":null,"population_aggregation_target":null,"age_65plus_missing":false,"age_75plus_missing":false,"age_quality_flag":"ok","data_completeness":"complete"}},{"type":"Feature","geometry":{"type":"Polygon","coordinates":[[[133.20624999999998,34.270833333333336],[133.21249999999998,34.270833333333336],[133.21249999999998,34.275000000000006],[133.20624999999998,34.275000000000006],[133.20624999999998,34.270833333333336]]]},"properties":{"type":"Feature","mesh_id":"513331264","municipality_code":"38356","municipality":"上島町","total_population":236,"population_65plus":79,"population_75plus":31,"aging_rate_65plus":0.3347457627118644,"aging_rate_75plus":0.13135593220338984,"population_status":"0","population_status_target":null,"population_aggregation_target":null,"age_65plus_missing":false,"age_75plus_missing":false,"age_quality_flag":"ok","data_completeness":"complete"}},{"type":"Feature","geometry":{"type":"Polygon","coordinates":[[[133.2125,34.270833333333336],[133.21875,34.270833333333336],[133.21875,34.275000000000006],[133.2125,34.275000000000006],[133.2125,34.270833333333336]]]},"properties":{"type":"Feature","mesh_id":"513331272","municipality_code":"38356","municipality":"上島町","total_population":18,"population_65plus":7,"population_75plus":3,"aging_rate_65plus":0.3888888888888889,"aging_rate_75plus":0.16666666666666666,"population_status":"1","population_status_target":null,"population_aggregation_target":"513331382","age_65plus_missing":false,"age_75plus_missing":false,"age_quality_flag":"ok","data_completeness":"complete"}},{"type":"Feature","geometry":{"type":"Polygon","coordinates":[[[133.21875,34.266666666666666],[133.225,34.266666666666666],[133.225,34.270833333333336],[133.21875,34.270833333333336],[133.21875,34.266666666666666]]]},"properties":{"type":"Feature","mesh_id":"513331273","municipality_code":"38356","municipality":"上島町","total_population":36,"population_65plus":10,"population_75plus":8,"aging_rate_65plus":0.2777777777777778,"aging_rate_75plus":0.2222222222222222,"population_status":"0","population_status_target":null,"population_aggregation_target":null,"age_65plus_missing":false,"age_75plus_missing":false,"age_quality_flag":"ok","data_completeness":"complete"}},{"type":"Feature","geometry":{"type":"Polygon","coordinates":[[[133.14374999999998,34.275],[133.14999999999998,34.275],[133.14999999999998,34.27916666666667],[133.14374999999998,34.27916666666667],[133.14374999999998,34.275]]]},"properties":{"type":"Feature","mesh_id":"513331313","municipality_code":"38356","municipality":"上島町","total_population":2,"population_65plus":null,"population_75plus":null,"aging_rate_65plus":null,"aging_rate_75plus":null,"population_status":"2","population_status_target":"513331314","population_aggregation_target":null,"age_65plus_missing":true,"age_75plus_missing":true,"age_quality_flag":"ok","data_completeness":"partial"}},{"type":"Feature","geometry":{"type":"Polygon","coordinates":[[[133.1625,34.27916666666667],[133.16875,34.27916666666667],[133.16875,34.28333333333334],[133.1625,34.28333333333334],[133.1625,34.27916666666667]]]},"properties":{"type":"Feature","mesh_id":"513331332","municipality_code":"38356","municipality":"上島町","total_population":84,"population_65plus":47,"population_75plus":23,"aging_rate_65plus":0.5595238095238095,"aging_rate_75plus":0.27380952380952384,"population_status":"0","population_status_target":null,"population_aggregation_target":null,"age_65plus_missing":false,"age_75plus_missing":false,"age_quality_flag":"ok","data_completeness":"complete"}},{"type":"Feature","geometry":{"type":"Polygon","coordinates":[[[133.175,34.275],[133.18125,34.275],[133.18125,34.27916666666667],[133.175,34.27916666666667],[133.175,34.275]]]},"properties":{"type":"Feature","mesh_id":"513331341","municipality_code":"38356","municipality":"上島町","total_population":179,"population_65plus":109,"population_75plus":62,"aging_rate_65plus":0.6089385474860335,"aging_rate_75plus":0.3463687150837989,"population_status":"0","population_status_target":null,"population_aggregation_target":null,"age_65plus_missing":false,"age_75plus_missing":false,"age_quality_flag":"ok","data_completeness":"complete"}},{"type":"Feature","geometry":{"type":"Polygon","coordinates":[[[133.21875,34.275],[133.225,34.275],[133.225,34.27916666666667],[133.21875,34.27916666666667],[133.21875,34.275]]]},"properties":{"type":"Feature","mesh_id":"513331373","municipality_code":"38356","municipality":"上島町","total_population":18,"population_65plus":10,"population_75plus":4,"aging_rate_65plus":0.5555555555555556,"aging_rate_75plus":0.2222222222222222,"population_status":"0","population_status_target":null,"population_aggregation_target":null,"age_65plus_missing":false,"age_75plus_missing":false,"age_quality_flag":"ok","data_completeness":"complete"}},{"type":"Feature","geometry":{"type":"Polygon","coordinates":[[[133.225,34.27916666666667],[133.23125,34.27916666666667],[133.23125,34.28333333333334],[133.225,34.28333333333334],[133.225,34.27916666666667]]]},"properties":{"type":"Feature","mesh_id":"513331382","municipality_code":"38356","municipality":"上島町","total_population":15,"population_65plus":null,"population_75plus":null,"aging_rate_65plus":null,"aging_rate_75plus":null,"population_status":"2","population_status_target":"513331272","population_aggregation_target":null,"age_65plus_missing":true,"age_75plus_missing":true,"age_quality_flag":"ok","data_completeness":"partial"}},{"type":"Feature","geometry":{"type":"Polygon","coordinates":[[[133.16875,34.2875],[133.17499999999998,34.2875],[133.17499999999998,34.29166666666667],[133.16875,34.29166666666667],[133.16875,34.2875]]]},"properties":{"type":"Feature","mesh_id":"513331434","municipality_code":"38356","municipality":"上島町","total_population":7,"population_65plus":null,"population_75plus":null,"aging_rate_65plus":null,"aging_rate_75plus":null,"population_status":"2","population_status_target":"513331443","population_aggregation_target":null,"age_65plus_missing":true,"age_75plus_missing":true,"age_quality_flag":"ok","data_completeness":"partial"}},{"type":"Feature","geometry":{"type":"Polygon","coordinates":[[[133.225,34.28333333333333],[133.23125,34.28333333333333],[133.23125,34.2875],[133.225,34.2875],[133.225,34.28333333333333]]]},"properties":{"type":"Feature","mesh_id":"513331481","municipality_code":"38356","municipality":"上島町","total_population":20,"population_65plus":17,"population_75plus":6,"aging_rate_65plus":0.85,"aging_rate_75plus":0.3,"population_status":"0","population_status_target":null,"population_aggregation_target":null,"age_65plus_missing":false,"age_75plus_missing":false,"age_quality_flag":"ok","data_completeness":"complete"}}]}