{"type":"FeatureCollection","features":[{"type":"Feature","geometry":{"type":"Polygon","coordinates":[[[132.7125,33.770833333333336],[132.71875,33.770833333333336],[132.71875,33.775000000000006],[132.7125,33.775000000000006],[132.7125,33.770833333333336]]]},"properties":{"type":"Feature","mesh_id":"503255272","municipality_code":"38401","municipality":"松前町","total_population":270,"population_65plus":103,"population_75plus":63,"aging_rate_65plus":0.3814814814814815,"aging_rate_75plus":0.23333333333333334,"population_status":"0","population_status_target":null,"population_aggregation_target":null,"age_65plus_missing":false,"age_75plus_missing":false,"age_quality_flag":"ok","data_completeness":"complete"}},{"type":"Feature","geometry":{"type":"Polygon","coordinates":[[[132.725,33.770833333333336],[132.73125,33.770833333333336],[132.73125,33.775000000000006],[132.725,33.775000000000006],[132.725,33.770833333333336]]]},"properties":{"type":"Feature","mesh_id":"503255282","municipality_code":"38401","municipality":"松前町","total_population":291,"population_65plus":79,"population_75plus":35,"aging_rate_65plus":0.27147766323024053,"aging_rate_75plus":0.12027491408934708,"population_status":"0","population_status_target":null,"population_aggregation_target":null,"age_65plus_missing":false,"age_75plus_missing":false,"age_quality_flag":"ok","data_completeness":"complete"}},{"type":"Feature","geometry":{"type":"Polygon","coordinates":[[[132.7,33.775],[132.70624999999998,33.775],[132.70624999999998,33.77916666666667],[132.7,33.77916666666667],[132.7,33.775]]]},"properties":{"type":"Feature","mesh_id":"503255361","municipality_code":"38401","municipality":"松前町","total_population":1167,"population_65plus":276,"population_75plus":148,"aging_rate_65plus":0.2365038560411311,"aging_rate_75plus":0.1268209083119109,"population_status":"0","population_status_target":null,"population_aggregation_target":null,"age_65plus_missing":false,"age_75plus_missing":false,"age_quality_flag":"ok","data_completeness":"complete"}},{"type":"Feature","geometry":{"type":"Polygon","coordinates":[[[132.7,33.77916666666667],[132.70624999999998,33.77916666666667],[132.70624999999998,33.78333333333334],[132.7,33.78333333333334],[132.7,33.77916666666667]]]},"properties":{"type":"Feature","mesh_id":"503255362","municipality_code":"38401","municipality":"松前町","total_population":1003,"population_65plus":197,"population_75plus":69,"aging_rate_65plus":0.19641076769690927,"aging_rate_75plus":0.06879361914257229,"population_status":"0","population_status_target":null,"population_aggregation_target":null,"age_65plus_missing":false,"age_75plus_missing":false,"age_quality_flag":"ok","data_completeness":"complete"}},{"type":"Feature","geometry":{"type":"Polygon","coordinates":[[[132.70624999999998,33.775],[132.71249999999998,33.775],[132.71249999999998,33.77916666666667],[132.70624999999998,33.77916666666667],[132.70624999999998,33.775]]]},"properties":{"type":"Feature","mesh_id":"503255363","municipality_code":"38401","municipality":"松前町","total_population":1321,"population_65plus":440,"population_75plus":241,"aging_rate_65plus":0.3330809992429977,"aging_rate_75plus":0.18243754731264195,"population_status":"0","population_status_target":null,"population_aggregation_target":null,"age_65plus_missing":false,"age_75plus_missing":false,"age_quality_flag":"ok","data_completeness":"complete"}},{"type":"Feature","geometry":{"type":"Polygon","coordinates":[[[132.70624999999998,33.77916666666667],[132.71249999999998,33.77916666666667],[132.71249999999998,33.78333333333334],[132.70624999999998,33.78333333333334],[132.70624999999998,33.77916666666667]]]},"properties":{"type":"Feature","mesh_id":"503255364","municipality_code":"38401","municipality":"松前町","total_population":1378,"population_65plus":404,"population_75plus":198,"aging_rate_65plus":0.2931785195936139,"aging_rate_75plus":0.14368650217706821,"population_status":"0","population_status_target":null,"population_aggregation_target":null,"age_65plus_missing":false,"age_75plus_missing":false,"age_quality_flag":"ok","data_completeness":"complete"}},{"type":"Feature","geometry":{"type":"Polygon","coordinates":[[[132.7125,33.775],[132.71875,33.775],[132.71875,33.77916666666667],[132.7125,33.77916666666667],[132.7125,33.775]]]},"properties":{"type":"Feature","mesh_id":"503255371","municipality_code":"38401","municipality":"松前町","total_population":105,"population_65plus":46,"population_75plus":26,"aging_rate_65plus":0.4380952380952381,"aging_rate_75plus":0.24761904761904763,"population_status":"0","population_status_target":null,"population_aggregation_target":null,"age_65plus_missing":false,"age_75plus_missing":false,"age_quality_flag":"ok","data_completeness":"complete"}},{"type":"Feature","geometry":{"type":"Polygon","coordinates":[[[132.7125,33.77916666666667],[132.71875,33.77916666666667],[132.71875,33.78333333333334],[132.7125,33.78333333333334],[132.7125,33.77916666666667]]]},"properties":{"type":"Feature","mesh_id":"503255372","municipality_code":"38401","municipality":"松前町","total_population":52,"population_65plus":20,"population_75plus":12,"aging_rate_65plus":0.38461538461538464,"aging_rate_75plus":0.23076923076923078,"population_status":"0","population_status_target":null,"population_aggregation_target":null,"age_65plus_missing":false,"age_75plus_missing":false,"age_quality_flag":"ok","data_completeness":"complete"}},{"type":"Feature","geometry":{"type":"Polygon","coordinates":[[[132.71875,33.77916666666667],[132.725,33.77916666666667],[132.725,33.78333333333334],[132.71875,33.78333333333334],[132.71875,33.77916666666667]]]},"properties":{"type":"Feature","mesh_id":"503255374","municipality_code":"38401","municipality":"松前町","total_population":159,"population_65plus":61,"population_75plus":34,"aging_rate_65plus":0.3836477987421384,"aging_rate_75plus":0.2138364779874214,"population_status":"0","population_status_target":null,"population_aggregation_target":null,"age_65plus_missing":false,"age_75plus_missing":false,"age_quality_flag":"ok","data_completeness":"complete"}},{"type":"Feature","geometry":{"type":"Polygon","coordinates":[[[132.725,33.775],[132.73125,33.775],[132.73125,33.77916666666667],[132.725,33.77916666666667],[132.725,33.775]]]},"properties":{"type":"Feature","mesh_id":"503255381","municipality_code":"38401","municipality":"松前町","total_population":120,"population_65plus":39,"population_75plus":24,"aging_rate_65plus":0.325,"aging_rate_75plus":0.2,"population_status":"0","population_status_target":null,"population_aggregation_target":null,"age_65plus_missing":false,"age_75plus_missing":false,"age_quality_flag":"ok","data_completeness":"complete"}},{"type":"Feature","geometry":{"type":"Polygon","coordinates":[[[132.725,33.77916666666667],[132.73125,33.77916666666667],[132.73125,33.78333333333334],[132.725,33.78333333333334],[132.725,33.77916666666667]]]},"properties":{"type":"Feature","mesh_id":"503255382","municipality_code":"38401","municipality":"松前町","total_population":43,"population_65plus":16,"population_75plus":4,"aging_rate_65plus":0.37209302325581395,"aging_rate_75plus":0.09302325581395349,"population_status":"0","population_status_target":null,"population_aggregation_target":null,"age_65plus_missing":false,"age_75plus_missing":false,"age_quality_flag":"ok","data_completeness":"complete"}},{"type":"Feature","geometry":{"type":"Polygon","coordinates":[[[132.73125,33.77916666666667],[132.73749999999998,33.77916666666667],[132.73749999999998,33.78333333333334],[132.73125,33.78333333333334],[132.73125,33.77916666666667]]]},"properties":{"type":"Feature","mesh_id":"503255384","municipality_code":"38401","municipality":"松前町","total_population":321,"population_65plus":141,"population_75plus":88,"aging_rate_65plus":0.4392523364485981,"aging_rate_75plus":0.27414330218068533,"population_status":"0","population_status_target":null,"population_aggregation_target":null,"age_65plus_missing":false,"age_75plus_missing":false,"age_quality_flag":"ok","data_completeness":"complete"}},{"type":"Feature","geometry":{"type":"Polygon","coordinates":[[[132.7375,33.77916666666667],[132.74375,33.77916666666667],[132.74375,33.78333333333334],[132.7375,33.78333333333334],[132.7375,33.77916666666667]]]},"properties":{"type":"Feature","mesh_id":"503255392","municipality_code":"38401","municipality":"松前町","total_population":102,"population_65plus":26,"population_75plus":17,"aging_rate_65plus":0.2549019607843137,"aging_rate_75plus":0.16666666666666666,"population_status":"0","population_status_target":null,"population_aggregation_target":null,"age_65plus_missing":false,"age_75plus_missing":false,"age_quality_flag":"ok","data_completeness":"complete"}},{"type":"Feature","geometry":{"type":"Polygon","coordinates":[[[132.6875,33.7875],[132.69375,33.7875],[132.69375,33.79166666666667],[132.6875,33.79166666666667],[132.6875,33.7875]]]},"properties":{"type":"Feature","mesh_id":"503255452","municipality_code":"38401","municipality":"松前町","total_population":9,"population_65plus":null,"population_75plus":null,"aging_rate_65plus":null,"aging_rate_75plus":null,"population_status":"2","population_status_target":"503255461","population_aggregation_target":null,"age_65plus_missing":true,"age_75plus_missing":true,"age_quality_flag":"ok","data_completeness":"partial"}},{"type":"Feature","geometry":{"type":"Polygon","coordinates":[[[132.7,33.78333333333333],[132.70624999999998,33.78333333333333],[132.70624999999998,33.7875],[132.7,33.7875],[132.7,33.78333333333333]]]},"properties":{"type":"Feature","mesh_id":"503255461","municipality_code":"38401","municipality":"松前町","total_population":1356,"population_65plus":508,"population_75plus":276,"aging_rate_65plus":0.3746312684365782,"aging_rate_75plus":0.20353982300884957,"population_status":"1","population_status_target":null,"population_aggregation_target":"503255452","age_65plus_missing":false,"age_75plus_missing":false,"age_quality_flag":"ok","data_completeness":"complete"}},{"type":"Feature","geometry":{"type":"Polygon","coordinates":[[[132.7,33.7875],[132.70624999999998,33.7875],[132.70624999999998,33.79166666666667],[132.7,33.79166666666667],[132.7,33.7875]]]},"properties":{"type":"Feature","mesh_id":"503255462","municipality_code":"38401","municipality":"松前町","total_population":1135,"population_65plus":291,"population_75plus":147,"aging_rate_65plus":0.2563876651982379,"aging_rate_75plus":0.12951541850220263,"population_status":"0","population_status_target":null,"population_aggregation_target":null,"age_65plus_missing":false,"age_75plus_missing":false,"age_quality_flag":"ok","data_completeness":"complete"}},{"type":"Feature","geometry":{"type":"Polygon","coordinates":[[[132.70624999999998,33.78333333333333],[132.71249999999998,33.78333333333333],[132.71249999999998,33.7875],[132.70624999999998,33.7875],[132.70624999999998,33.78333333333333]]]},"properties":{"type":"Feature","mesh_id":"503255463","municipality_code":"38401","municipality":"松前町","total_population":1644,"population_65plus":479,"population_75plus":264,"aging_rate_65plus":0.2913625304136253,"aging_rate_75plus":0.16058394160583941,"population_status":"0","population_status_target":null,"population_aggregation_target":null,"age_65plus_missing":false,"age_75plus_missing":false,"age_quality_flag":"ok","data_completeness":"complete"}},{"type":"Feature","geometry":{"type":"Polygon","coordinates":[[[132.70624999999998,33.7875],[132.71249999999998,33.7875],[132.71249999999998,33.79166666666667],[132.70624999999998,33.79166666666667],[132.70624999999998,33.7875]]]},"properties":{"type":"Feature","mesh_id":"503255464","municipality_code":"38401","municipality":"松前町","total_population":2018,"population_65plus":490,"population_75plus":175,"aging_rate_65plus":0.24281466798810702,"aging_rate_75plus":0.0867195242814668,"population_status":"0","population_status_target":null,"population_aggregation_target":null,"age_65plus_missing":false,"age_75plus_missing":false,"age_quality_flag":"ok","data_completeness":"complete"}},{"type":"Feature","geometry":{"type":"Polygon","coordinates":[[[132.7125,33.78333333333333],[132.71875,33.78333333333333],[132.71875,33.7875],[132.7125,33.7875],[132.7125,33.78333333333333]]]},"properties":{"type":"Feature","mesh_id":"503255471","municipality_code":"38401","municipality":"松前町","total_population":243,"population_65plus":90,"population_75plus":45,"aging_rate_65plus":0.37037037037037035,"aging_rate_75plus":0.18518518518518517,"population_status":"1","population_status_target":null,"population_aggregation_target":"503255473","age_65plus_missing":false,"age_75plus_missing":false,"age_quality_flag":"ok","data_completeness":"complete"}},{"type":"Feature","geometry":{"type":"Polygon","coordinates":[[[132.7125,33.7875],[132.71875,33.7875],[132.71875,33.79166666666667],[132.7125,33.79166666666667],[132.7125,33.7875]]]},"properties":{"type":"Feature","mesh_id":"503255472","municipality_code":"38401","municipality":"松前町","total_population":328,"population_65plus":135,"population_75plus":76,"aging_rate_65plus":0.4115853658536585,"aging_rate_75plus":0.23170731707317074,"population_status":"0","population_status_target":null,"population_aggregation_target":null,"age_65plus_missing":false,"age_75plus_missing":false,"age_quality_flag":"ok","data_completeness":"complete"}},{"type":"Feature","geometry":{"type":"Polygon","coordinates":[[[132.71875,33.78333333333333],[132.725,33.78333333333333],[132.725,33.7875],[132.71875,33.7875],[132.71875,33.78333333333333]]]},"properties":{"type":"Feature","mesh_id":"503255473","municipality_code":"38401","municipality":"松前町","total_population":8,"population_65plus":null,"population_75plus":null,"aging_rate_65plus":null,"aging_rate_75plus":null,"population_status":"2","population_status_target":"503255471","population_aggregation_target":null,"age_65plus_missing":true,"age_75plus_missing":true,"age_quality_flag":"ok","data_completeness":"partial"}},{"type":"Feature","geometry":{"type":"Polygon","coordinates":[[[132.71875,33.7875],[132.725,33.7875],[132.725,33.79166666666667],[132.71875,33.79166666666667],[132.71875,33.7875]]]},"properties":{"type":"Feature","mesh_id":"503255474","municipality_code":"38401","municipality":"松前町","total_population":260,"population_65plus":61,"population_75plus":21,"aging_rate_65plus":0.23461538461538461,"aging_rate_75plus":0.08076923076923077,"population_status":"0","population_status_target":null,"population_aggregation_target":null,"age_65plus_missing":false,"age_75plus_missing":false,"age_quality_flag":"ok","data_completeness":"complete"}},{"type":"Feature","geometry":{"type":"Polygon","coordinates":[[[132.725,33.78333333333333],[132.73125,33.78333333333333],[132.73125,33.7875],[132.725,33.7875],[132.725,33.78333333333333]]]},"properties":{"type":"Feature","mesh_id":"503255481","municipality_code":"38401","municipality":"松前町","total_population":369,"population_65plus":139,"population_75plus":81,"aging_rate_65plus":0.37669376693766937,"aging_rate_75plus":0.21951219512195122,"population_status":"0","population_status_target":null,"population_aggregation_target":null,"age_65plus_missing":false,"age_75plus_missing":false,"age_quality_flag":"ok","data_completeness":"complete"}},{"type":"Feature","geometry":{"type":"Polygon","coordinates":[[[132.725,33.7875],[132.73125,33.7875],[132.73125,33.79166666666667],[132.725,33.79166666666667],[132.725,33.7875]]]},"properties":{"type":"Feature","mesh_id":"503255482","municipality_code":"38401","municipality":"松前町","total_population":183,"population_65plus":98,"population_75plus":61,"aging_rate_65plus":0.5355191256830601,"aging_rate_75plus":0.3333333333333333,"population_status":"0","population_status_target":null,"population_aggregation_target":null,"age_65plus_missing":false,"age_75plus_missing":false,"age_quality_flag":"ok","data_completeness":"complete"}},{"type":"Feature","geometry":{"type":"Polygon","coordinates":[[[132.73125,33.78333333333333],[132.73749999999998,33.78333333333333],[132.73749999999998,33.7875],[132.73125,33.7875],[132.73125,33.78333333333333]]]},"properties":{"type":"Feature","mesh_id":"503255483","municipality_code":"38401","municipality":"松前町","total_population":228,"population_65plus":86,"population_75plus":47,"aging_rate_65plus":0.37719298245614036,"aging_rate_75plus":0.20614035087719298,"population_status":"0","population_status_target":null,"population_aggregation_target":null,"age_65plus_missing":false,"age_75plus_missing":false,"age_quality_flag":"ok","data_completeness":"complete"}},{"type":"Feature","geometry":{"type":"Polygon","coordinates":[[[132.73125,33.7875],[132.73749999999998,33.7875],[132.73749999999998,33.79166666666667],[132.73125,33.79166666666667],[132.73125,33.7875]]]},"properties":{"type":"Feature","mesh_id":"503255484","municipality_code":"38401","municipality":"松前町","total_population":168,"population_65plus":34,"population_75plus":15,"aging_rate_65plus":0.20238095238095238,"aging_rate_75plus":0.08928571428571429,"population_status":"0","population_status_target":null,"population_aggregation_target":null,"age_65plus_missing":false,"age_75plus_missing":false,"age_quality_flag":"ok","data_completeness":"complete"}},{"type":"Feature","geometry":{"type":"Polygon","coordinates":[[[132.7375,33.78333333333333],[132.74375,33.78333333333333],[132.74375,33.7875],[132.7375,33.7875],[132.7375,33.78333333333333]]]},"properties":{"type":"Feature","mesh_id":"503255491","municipality_code":"38401","municipality":"松前町","total_population":364,"population_65plus":159,"population_75plus":116,"aging_rate_65plus":0.4368131868131868,"aging_rate_75plus":0.31868131868131866,"population_status":"0","population_status_target":null,"population_aggregation_target":null,"age_65plus_missing":false,"age_75plus_missing":false,"age_quality_flag":"ok","data_completeness":"complete"}},{"type":"Feature","geometry":{"type":"Polygon","coordinates":[[[132.7375,33.7875],[132.74375,33.7875],[132.74375,33.79166666666667],[132.7375,33.79166666666667],[132.7375,33.7875]]]},"properties":{"type":"Feature","mesh_id":"503255492","municipality_code":"38401","municipality":"松前町","total_population":621,"population_65plus":238,"population_75plus":130,"aging_rate_65plus":0.3832528180354267,"aging_rate_75plus":0.20933977455716588,"population_status":"0","population_status_target":null,"population_aggregation_target":null,"age_65plus_missing":false,"age_75plus_missing":false,"age_quality_flag":"ok","data_completeness":"complete"}},{"type":"Feature","geometry":{"type":"Polygon","coordinates":[[[132.74375,33.78333333333333],[132.75,33.78333333333333],[132.75,33.7875],[132.74375,33.7875],[132.74375,33.78333333333333]]]},"properties":{"type":"Feature","mesh_id":"503255493","municipality_code":"38401","municipality":"松前町","total_population":290,"population_65plus":107,"population_75plus":74,"aging_rate_65plus":0.3689655172413793,"aging_rate_75plus":0.25517241379310346,"population_status":"0","population_status_target":null,"population_aggregation_target":null,"age_65plus_missing":false,"age_75plus_missing":false,"age_quality_flag":"ok","data_completeness":"complete"}},{"type":"Feature","geometry":{"type":"Polygon","coordinates":[[[132.74375,33.7875],[132.75,33.7875],[132.75,33.79166666666667],[132.74375,33.79166666666667],[132.74375,33.7875]]]},"properties":{"type":"Feature","mesh_id":"503255494","municipality_code":"38401","municipality":"松前町","total_population":352,"population_65plus":130,"population_75plus":72,"aging_rate_65plus":0.3693181818181818,"aging_rate_75plus":0.20454545454545456,"population_status":"0","population_status_target":null,"population_aggregation_target":null,"age_65plus_missing":false,"age_75plus_missing":false,"age_quality_flag":"ok","data_completeness":"complete"}},{"type":"Feature","geometry":{"type":"Polygon","coordinates":[[[132.69375,33.795833333333334],[132.7,33.795833333333334],[132.7,33.800000000000004],[132.69375,33.800000000000004],[132.69375,33.795833333333334]]]},"properties":{"type":"Feature","mesh_id":"503255554","municipality_code":"38401","municipality":"松前町","total_population":325,"population_65plus":117,"population_75plus":56,"aging_rate_65plus":0.36,"aging_rate_75plus":0.1723076923076923,"population_status":"0","population_status_target":null,"population_aggregation_target":null,"age_65plus_missing":false,"age_75plus_missing":false,"age_quality_flag":"ok","data_completeness":"complete"}},{"type":"Feature","geometry":{"type":"Polygon","coordinates":[[[132.7,33.791666666666664],[132.70624999999998,33.791666666666664],[132.70624999999998,33.795833333333334],[132.7,33.795833333333334],[132.7,33.791666666666664]]]},"properties":{"type":"Feature","mesh_id":"503255561","municipality_code":"38401","municipality":"松前町","total_population":1364,"population_65plus":346,"population_75plus":157,"aging_rate_65plus":0.2536656891495601,"aging_rate_75plus":0.11510263929618768,"population_status":"0","population_status_target":null,"population_aggregation_target":null,"age_65plus_missing":false,"age_75plus_missing":false,"age_quality_flag":"ok","data_completeness":"complete"}},{"type":"Feature","geometry":{"type":"Polygon","coordinates":[[[132.7,33.795833333333334],[132.70624999999998,33.795833333333334],[132.70624999999998,33.800000000000004],[132.7,33.800000000000004],[132.7,33.795833333333334]]]},"properties":{"type":"Feature","mesh_id":"503255562","municipality_code":"38401","municipality":"松前町","total_population":1196,"population_65plus":370,"population_75plus":145,"aging_rate_65plus":0.3093645484949833,"aging_rate_75plus":0.12123745819397994,"population_status":"0","population_status_target":null,"population_aggregation_target":null,"age_65plus_missing":false,"age_75plus_missing":false,"age_quality_flag":"ok","data_completeness":"complete"}},{"type":"Feature","geometry":{"type":"Polygon","coordinates":[[[132.70624999999998,33.791666666666664],[132.71249999999998,33.791666666666664],[132.71249999999998,33.795833333333334],[132.70624999999998,33.795833333333334],[132.70624999999998,33.791666666666664]]]},"properties":{"type":"Feature","mesh_id":"503255563","municipality_code":"38401","municipality":"松前町","total_population":93,"population_65plus":17,"population_75plus":9,"aging_rate_65plus":0.1827956989247312,"aging_rate_75plus":0.0967741935483871,"population_status":"0","population_status_target":null,"population_aggregation_target":null,"age_65plus_missing":false,"age_75plus_missing":false,"age_quality_flag":"ok","data_completeness":"complete"}},{"type":"Feature","geometry":{"type":"Polygon","coordinates":[[[132.70624999999998,33.795833333333334],[132.71249999999998,33.795833333333334],[132.71249999999998,33.800000000000004],[132.70624999999998,33.800000000000004],[132.70624999999998,33.795833333333334]]]},"properties":{"type":"Feature","mesh_id":"503255564","municipality_code":"38401","municipality":"松前町","total_population":317,"population_65plus":47,"population_75plus":15,"aging_rate_65plus":0.14826498422712933,"aging_rate_75plus":0.0473186119873817,"population_status":"0","population_status_target":null,"population_aggregation_target":null,"age_65plus_missing":false,"age_75plus_missing":false,"age_quality_flag":"ok","data_completeness":"complete"}},{"type":"Feature","geometry":{"type":"Polygon","coordinates":[[[132.7125,33.791666666666664],[132.71875,33.791666666666664],[132.71875,33.795833333333334],[132.7125,33.795833333333334],[132.7125,33.791666666666664]]]},"properties":{"type":"Feature","mesh_id":"503255571","municipality_code":"38401","municipality":"松前町","total_population":510,"population_65plus":170,"population_75plus":86,"aging_rate_65plus":0.3333333333333333,"aging_rate_75plus":0.16862745098039217,"population_status":"0","population_status_target":null,"population_aggregation_target":null,"age_65plus_missing":false,"age_75plus_missing":false,"age_quality_flag":"ok","data_completeness":"complete"}},{"type":"Feature","geometry":{"type":"Polygon","coordinates":[[[132.7125,33.795833333333334],[132.71875,33.795833333333334],[132.71875,33.800000000000004],[132.7125,33.800000000000004],[132.7125,33.795833333333334]]]},"properties":{"type":"Feature","mesh_id":"503255572","municipality_code":"38401","municipality":"松前町","total_population":179,"population_65plus":67,"population_75plus":26,"aging_rate_65plus":0.3743016759776536,"aging_rate_75plus":0.1452513966480447,"population_status":"0","population_status_target":null,"population_aggregation_target":null,"age_65plus_missing":false,"age_75plus_missing":false,"age_quality_flag":"ok","data_completeness":"complete"}},{"type":"Feature","geometry":{"type":"Polygon","coordinates":[[[132.71875,33.791666666666664],[132.725,33.791666666666664],[132.725,33.795833333333334],[132.71875,33.795833333333334],[132.71875,33.791666666666664]]]},"properties":{"type":"Feature","mesh_id":"503255573","municipality_code":"38401","municipality":"松前町","total_population":413,"population_65plus":183,"population_75plus":124,"aging_rate_65plus":0.4430992736077482,"aging_rate_75plus":0.30024213075060535,"population_status":"0","population_status_target":null,"population_aggregation_target":null,"age_65plus_missing":false,"age_75plus_missing":false,"age_quality_flag":"ok","data_completeness":"complete"}},{"type":"Feature","geometry":{"type":"Polygon","coordinates":[[[132.71875,33.795833333333334],[132.725,33.795833333333334],[132.725,33.800000000000004],[132.71875,33.800000000000004],[132.71875,33.795833333333334]]]},"properties":{"type":"Feature","mesh_id":"503255574","municipality_code":"38401","municipality":"松前町","total_population":392,"population_65plus":100,"population_75plus":56,"aging_rate_65plus":0.25510204081632654,"aging_rate_75plus":0.14285714285714285,"population_status":"0","population_status_target":null,"population_aggregation_target":null,"age_65plus_missing":false,"age_75plus_missing":false,"age_quality_flag":"ok","data_completeness":"complete"}},{"type":"Feature","geometry":{"type":"Polygon","coordinates":[[[132.725,33.791666666666664],[132.73125,33.791666666666664],[132.73125,33.795833333333334],[132.725,33.795833333333334],[132.725,33.791666666666664]]]},"properties":{"type":"Feature","mesh_id":"503255581","municipality_code":"38401","municipality":"松前町","total_population":438,"population_65plus":183,"population_75plus":106,"aging_rate_65plus":0.4178082191780822,"aging_rate_75plus":0.2420091324200913,"population_status":"0","population_status_target":null,"population_aggregation_target":null,"age_65plus_missing":false,"age_75plus_missing":false,"age_quality_flag":"ok","data_completeness":"complete"}},{"type":"Feature","geometry":{"type":"Polygon","coordinates":[[[132.725,33.795833333333334],[132.73125,33.795833333333334],[132.73125,33.800000000000004],[132.725,33.800000000000004],[132.725,33.795833333333334]]]},"properties":{"type":"Feature","mesh_id":"503255582","municipality_code":"38401","municipality":"松前町","total_population":101,"population_65plus":33,"population_75plus":15,"aging_rate_65plus":0.32673267326732675,"aging_rate_75plus":0.1485148514851485,"population_status":"0","population_status_target":null,"population_aggregation_target":null,"age_65plus_missing":false,"age_75plus_missing":false,"age_quality_flag":"ok","data_completeness":"complete"}},{"type":"Feature","geometry":{"type":"Polygon","coordinates":[[[132.73125,33.791666666666664],[132.73749999999998,33.791666666666664],[132.73749999999998,33.795833333333334],[132.73125,33.795833333333334],[132.73125,33.791666666666664]]]},"properties":{"type":"Feature","mesh_id":"503255583","municipality_code":"38401","municipality":"松前町","total_population":645,"population_65plus":231,"population_75plus":130,"aging_rate_65plus":0.3581395348837209,"aging_rate_75plus":0.20155038759689922,"population_status":"0","population_status_target":null,"population_aggregation_target":null,"age_65plus_missing":false,"age_75plus_missing":false,"age_quality_flag":"ok","data_completeness":"complete"}},{"type":"Feature","geometry":{"type":"Polygon","coordinates":[[[132.73125,33.795833333333334],[132.73749999999998,33.795833333333334],[132.73749999999998,33.800000000000004],[132.73125,33.800000000000004],[132.73125,33.795833333333334]]]},"properties":{"type":"Feature","mesh_id":"503255584","municipality_code":"38401","municipality":"松前町","total_population":444,"population_65plus":139,"population_75plus":70,"aging_rate_65plus":0.3130630630630631,"aging_rate_75plus":0.15765765765765766,"population_status":"0","population_status_target":null,"population_aggregation_target":null,"age_65plus_missing":false,"age_75plus_missing":false,"age_quality_flag":"ok","data_completeness":"complete"}},{"type":"Feature","geometry":{"type":"Polygon","coordinates":[[[132.7375,33.791666666666664],[132.74375,33.791666666666664],[132.74375,33.795833333333334],[132.7375,33.795833333333334],[132.7375,33.791666666666664]]]},"properties":{"type":"Feature","mesh_id":"503255591","municipality_code":"38401","municipality":"松前町","total_population":80,"population_65plus":26,"population_75plus":18,"aging_rate_65plus":0.325,"aging_rate_75plus":0.225,"population_status":"0","population_status_target":null,"population_aggregation_target":null,"age_65plus_missing":false,"age_75plus_missing":false,"age_quality_flag":"ok","data_completeness":"complete"}},{"type":"Feature","geometry":{"type":"Polygon","coordinates":[[[132.7375,33.795833333333334],[132.74375,33.795833333333334],[132.74375,33.800000000000004],[132.7375,33.800000000000004],[132.7375,33.795833333333334]]]},"properties":{"type":"Feature","mesh_id":"503255592","municipality_code":"38401","municipality":"松前町","total_population":199,"population_65plus":68,"population_75plus":31,"aging_rate_65plus":0.3417085427135678,"aging_rate_75plus":0.15577889447236182,"population_status":"0","population_status_target":null,"population_aggregation_target":null,"age_65plus_missing":false,"age_75plus_missing":false,"age_quality_flag":"ok","data_completeness":"complete"}},{"type":"Feature","geometry":{"type":"Polygon","coordinates":[[[132.74375,33.791666666666664],[132.75,33.791666666666664],[132.75,33.795833333333334],[132.74375,33.795833333333334],[132.74375,33.791666666666664]]]},"properties":{"type":"Feature","mesh_id":"503255593","municipality_code":"38401","municipality":"松前町","total_population":174,"population_65plus":69,"population_75plus":40,"aging_rate_65plus":0.39655172413793105,"aging_rate_75plus":0.22988505747126436,"population_status":"0","population_status_target":null,"population_aggregation_target":null,"age_65plus_missing":false,"age_75plus_missing":false,"age_quality_flag":"ok","data_completeness":"complete"}},{"type":"Feature","geometry":{"type":"Polygon","coordinates":[[[132.74375,33.795833333333334],[132.75,33.795833333333334],[132.75,33.800000000000004],[132.74375,33.800000000000004],[132.74375,33.795833333333334]]]},"properties":{"type":"Feature","mesh_id":"503255594","municipality_code":"38401","municipality":"松前町","total_population":56,"population_65plus":18,"population_75plus":6,"aging_rate_65plus":0.32142857142857145,"aging_rate_75plus":0.10714285714285714,"population_status":"0","population_status_target":null,"population_aggregation_target":null,"age_65plus_missing":false,"age_75plus_missing":false,"age_quality_flag":"ok","data_completeness":"complete"}},{"type":"Feature","geometry":{"type":"Polygon","coordinates":[[[132.7,33.8],[132.70624999999998,33.8],[132.70624999999998,33.80416666666667],[132.7,33.80416666666667],[132.7,33.8]]]},"properties":{"type":"Feature","mesh_id":"503255661","municipality_code":"38401","municipality":"松前町","total_population":259,"population_65plus":94,"population_75plus":46,"aging_rate_65plus":0.36293436293436293,"aging_rate_75plus":0.1776061776061776,"population_status":"0","population_status_target":null,"population_aggregation_target":null,"age_65plus_missing":false,"age_75plus_missing":false,"age_quality_flag":"ok","data_completeness":"complete"}},{"type":"Feature","geometry":{"type":"Polygon","coordinates":[[[132.70624999999998,33.8],[132.71249999999998,33.8],[132.71249999999998,33.80416666666667],[132.70624999999998,33.80416666666667],[132.70624999999998,33.8]]]},"properties":{"type":"Feature","mesh_id":"503255663","municipality_code":"38401","municipality":"松前町","total_population":617,"population_65plus":159,"population_75plus":85,"aging_rate_65plus":0.2576985413290113,"aging_rate_75plus":0.13776337115072934,"population_status":"0","population_status_target":null,"population_aggregation_target":null,"age_65plus_missing":false,"age_75plus_missing":false,"age_quality_flag":"ok","data_completeness":"complete"}},{"type":"Feature","geometry":{"type":"Polygon","coordinates":[[[132.70624999999998,33.80416666666667],[132.71249999999998,33.80416666666667],[132.71249999999998,33.80833333333334],[132.70624999999998,33.80833333333334],[132.70624999999998,33.80416666666667]]]},"properties":{"type":"Feature","mesh_id":"503255664","municipality_code":"38401","municipality":"松前町","total_population":83,"population_65plus":8,"population_75plus":1,"aging_rate_65plus":0.0963855421686747,"aging_rate_75plus":0.012048192771084338,"population_status":"0","population_status_target":null,"population_aggregation_target":null,"age_65plus_missing":false,"age_75plus_missing":false,"age_quality_flag":"ok","data_completeness":"complete"}},{"type":"Feature","geometry":{"type":"Polygon","coordinates":[[[132.7125,33.8],[132.71875,33.8],[132.71875,33.80416666666667],[132.7125,33.80416666666667],[132.7125,33.8]]]},"properties":{"type":"Feature","mesh_id":"503255671","municipality_code":"38401","municipality":"松前町","total_population":575,"population_65plus":178,"population_75plus":120,"aging_rate_65plus":0.3095652173913043,"aging_rate_75plus":0.20869565217391303,"population_status":"0","population_status_target":null,"population_aggregation_target":null,"age_65plus_missing":false,"age_75plus_missing":false,"age_quality_flag":"ok","data_completeness":"complete"}},{"type":"Feature","geometry":{"type":"Polygon","coordinates":[[[132.7125,33.80416666666667],[132.71875,33.80416666666667],[132.71875,33.80833333333334],[132.7125,33.80833333333334],[132.7125,33.80416666666667]]]},"properties":{"type":"Feature","mesh_id":"503255672","municipality_code":"38401","municipality":"松前町","total_population":731,"population_65plus":232,"population_75plus":146,"aging_rate_65plus":0.3173734610123119,"aging_rate_75plus":0.1997264021887825,"population_status":"0","population_status_target":null,"population_aggregation_target":null,"age_65plus_missing":false,"age_75plus_missing":false,"age_quality_flag":"ok","data_completeness":"complete"}},{"type":"Feature","geometry":{"type":"Polygon","coordinates":[[[132.71875,33.8],[132.725,33.8],[132.725,33.80416666666667],[132.71875,33.80416666666667],[132.71875,33.8]]]},"properties":{"type":"Feature","mesh_id":"503255673","municipality_code":"38401","municipality":"松前町","total_population":391,"population_65plus":140,"population_75plus":75,"aging_rate_65plus":0.35805626598465473,"aging_rate_75plus":0.1918158567774936,"population_status":"0","population_status_target":null,"population_aggregation_target":null,"age_65plus_missing":false,"age_75plus_missing":false,"age_quality_flag":"ok","data_completeness":"complete"}},{"type":"Feature","geometry":{"type":"Polygon","coordinates":[[[132.71875,33.80416666666667],[132.725,33.80416666666667],[132.725,33.80833333333334],[132.71875,33.80833333333334],[132.71875,33.80416666666667]]]},"properties":{"type":"Feature","mesh_id":"503255674","municipality_code":"38401","municipality":"松前町","total_population":439,"population_65plus":91,"population_75plus":51,"aging_rate_65plus":0.2072892938496583,"aging_rate_75plus":0.11617312072892938,"population_status":"0","population_status_target":null,"population_aggregation_target":null,"age_65plus_missing":false,"age_75plus_missing":false,"age_quality_flag":"ok","data_completeness":"complete"}},{"type":"Feature","geometry":{"type":"Polygon","coordinates":[[[132.725,33.8],[132.73125,33.8],[132.73125,33.80416666666667],[132.725,33.80416666666667],[132.725,33.8]]]},"properties":{"type":"Feature","mesh_id":"503255681","municipality_code":"38401","municipality":"松前町","total_population":612,"population_65plus":200,"population_75plus":97,"aging_rate_65plus":0.32679738562091504,"aging_rate_75plus":0.15849673202614378,"population_status":"0","population_status_target":null,"population_aggregation_target":null,"age_65plus_missing":false,"age_75plus_missing":false,"age_quality_flag":"ok","data_completeness":"complete"}},{"type":"Feature","geometry":{"type":"Polygon","coordinates":[[[132.73125,33.8],[132.73749999999998,33.8],[132.73749999999998,33.80416666666667],[132.73125,33.80416666666667],[132.73125,33.8]]]},"properties":{"type":"Feature","mesh_id":"503255683","municipality_code":"38401","municipality":"松前町","total_population":411,"population_65plus":78,"population_75plus":33,"aging_rate_65plus":0.1897810218978102,"aging_rate_75plus":0.08029197080291971,"population_status":"0","population_status_target":null,"population_aggregation_target":null,"age_65plus_missing":false,"age_75plus_missing":false,"age_quality_flag":"ok","data_completeness":"complete"}},{"type":"Feature","geometry":{"type":"Polygon","coordinates":[[[132.7375,33.8],[132.74375,33.8],[132.74375,33.80416666666667],[132.7375,33.80416666666667],[132.7375,33.8]]]},"properties":{"type":"Feature","mesh_id":"503255691","municipality_code":"38401","municipality":"松前町","total_population":35,"population_65plus":15,"population_75plus":5,"aging_rate_65plus":0.42857142857142855,"aging_rate_75plus":0.14285714285714285,"population_status":"0","population_status_target":null,"population_aggregation_target":null,"age_65plus_missing":false,"age_75plus_missing":false,"age_quality_flag":"ok","data_completeness":"complete"}},{"type":"Feature","geometry":{"type":"Polygon","coordinates":[[[132.75,33.78333333333333],[132.75625,33.78333333333333],[132.75625,33.7875],[132.75,33.7875],[132.75,33.78333333333333]]]},"properties":{"type":"Feature","mesh_id":"503256401","municipality_code":"38401","municipality":"松前町","total_population":197,"population_65plus":59,"population_75plus":36,"aging_rate_65plus":0.29949238578680204,"aging_rate_75plus":0.18274111675126903,"population_status":"0","population_status_target":null,"population_aggregation_target":null,"age_65plus_missing":false,"age_75plus_missing":false,"age_quality_flag":"ok","data_completeness":"complete"}},{"type":"Feature","geometry":{"type":"Polygon","coordinates":[[[132.75,33.7875],[132.75625,33.7875],[132.75625,33.79166666666667],[132.75,33.79166666666667],[132.75,33.7875]]]},"properties":{"type":"Feature","mesh_id":"503256402","municipality_code":"38401","municipality":"松前町","total_population":94,"population_65plus":37,"population_75plus":18,"aging_rate_65plus":0.39361702127659576,"aging_rate_75plus":0.19148936170212766,"population_status":"0","population_status_target":null,"population_aggregation_target":null,"age_65plus_missing":false,"age_75plus_missing":false,"age_quality_flag":"ok","data_completeness":"complete"}},{"type":"Feature","geometry":{"type":"Polygon","coordinates":[[[132.75625,33.7875],[132.7625,33.7875],[132.7625,33.79166666666667],[132.75625,33.79166666666667],[132.75625,33.7875]]]},"properties":{"type":"Feature","mesh_id":"503256404","municipality_code":"38401","municipality":"松前町","total_population":398,"population_65plus":135,"population_75plus":61,"aging_rate_65plus":0.3391959798994975,"aging_rate_75plus":0.15326633165829145,"population_status":"0","population_status_target":null,"population_aggregation_target":null,"age_65plus_missing":false,"age_75plus_missing":false,"age_quality_flag":"ok","data_completeness":"complete"}},{"type":"Feature","geometry":{"type":"Polygon","coordinates":[[[132.75,33.791666666666664],[132.75625,33.791666666666664],[132.75625,33.795833333333334],[132.75,33.795833333333334],[132.75,33.791666666666664]]]},"properties":{"type":"Feature","mesh_id":"503256501","municipality_code":"38401","municipality":"松前町","total_population":312,"population_65plus":102,"population_75plus":47,"aging_rate_65plus":0.3269230769230769,"aging_rate_75plus":0.15064102564102563,"population_status":"0","population_status_target":null,"population_aggregation_target":null,"age_65plus_missing":false,"age_75plus_missing":false,"age_quality_flag":"ok","data_completeness":"complete"}},{"type":"Feature","geometry":{"type":"Polygon","coordinates":[[[132.75,33.795833333333334],[132.75625,33.795833333333334],[132.75625,33.800000000000004],[132.75,33.800000000000004],[132.75,33.795833333333334]]]},"properties":{"type":"Feature","mesh_id":"503256502","municipality_code":"38401","municipality":"松前町","total_population":201,"population_65plus":70,"population_75plus":28,"aging_rate_65plus":0.3482587064676617,"aging_rate_75plus":0.13930348258706468,"population_status":"0","population_status_target":null,"population_aggregation_target":null,"age_65plus_missing":false,"age_75plus_missing":false,"age_quality_flag":"ok","data_completeness":"complete"}},{"type":"Feature","geometry":{"type":"Polygon","coordinates":[[[132.75625,33.791666666666664],[132.7625,33.791666666666664],[132.7625,33.795833333333334],[132.75625,33.795833333333334],[132.75625,33.791666666666664]]]},"properties":{"type":"Feature","mesh_id":"503256503","municipality_code":"38401","municipality":"松前町","total_population":569,"population_65plus":191,"population_75plus":91,"aging_rate_65plus":0.335676625659051,"aging_rate_75plus":0.15992970123022848,"population_status":"0","population_status_target":null,"population_aggregation_target":null,"age_65plus_missing":false,"age_75plus_missing":false,"age_quality_flag":"ok","data_completeness":"complete"}},{"type":"Feature","geometry":{"type":"Polygon","coordinates":[[[132.75625,33.795833333333334],[132.7625,33.795833333333334],[132.7625,33.800000000000004],[132.75625,33.800000000000004],[132.75625,33.795833333333334]]]},"properties":{"type":"Feature","mesh_id":"503256504","municipality_code":"38401","municipality":"松前町","total_population":238,"population_65plus":64,"population_75plus":30,"aging_rate_65plus":0.2689075630252101,"aging_rate_75plus":0.12605042016806722,"population_status":"0","population_status_target":null,"population_aggregation_target":null,"age_65plus_missing":false,"age_75plus_missing":false,"age_quality_flag":"ok","data_completeness":"complete"}},{"type":"Feature","geometry":{"type":"Polygon","coordinates":[[[132.7625,33.791666666666664],[132.76874999999998,33.791666666666664],[132.76874999999998,33.795833333333334],[132.7625,33.795833333333334],[132.7625,33.791666666666664]]]},"properties":{"type":"Feature","mesh_id":"503256511","municipality_code":"38401","municipality":"松前町","total_population":74,"population_65plus":22,"population_75plus":9,"aging_rate_65plus":0.2972972972972973,"aging_rate_75plus":0.12162162162162163,"population_status":"1","population_status_target":null,"population_aggregation_target":"503256513","age_65plus_missing":false,"age_75plus_missing":false,"age_quality_flag":"ok","data_completeness":"complete"}},{"type":"Feature","geometry":{"type":"Polygon","coordinates":[[[132.75,33.8],[132.75625,33.8],[132.75625,33.80416666666667],[132.75,33.80416666666667],[132.75,33.8]]]},"properties":{"type":"Feature","mesh_id":"503256601","municipality_code":"38401","municipality":"松前町","total_population":233,"population_65plus":76,"population_75plus":41,"aging_rate_65plus":0.3261802575107296,"aging_rate_75plus":0.1759656652360515,"population_status":"0","population_status_target":null,"population_aggregation_target":null,"age_65plus_missing":false,"age_75plus_missing":false,"age_quality_flag":"ok","data_completeness":"complete"}}]}