{"type":"FeatureCollection","features":[{"type":"Feature","geometry":{"type":"Polygon","coordinates":[[[132.01874999999998,33.34583333333334],[132.02499999999998,33.34583333333334],[132.02499999999998,33.35000000000001],[132.01874999999998,33.35000000000001],[132.01874999999998,33.34583333333334]]]},"properties":{"type":"Feature","mesh_id":"503200114","municipality_code":"38442","municipality":"伊方町","total_population":8,"population_65plus":6,"population_75plus":5,"aging_rate_65plus":0.75,"aging_rate_75plus":0.625,"population_status":"1","population_status_target":null,"population_aggregation_target":"503200112","age_65plus_missing":false,"age_75plus_missing":false,"age_quality_flag":"ok","data_completeness":"complete"}},{"type":"Feature","geometry":{"type":"Polygon","coordinates":[[[132.03125,33.35416666666667],[132.0375,33.35416666666667],[132.0375,33.35833333333334],[132.03125,33.35833333333334],[132.03125,33.35416666666667]]]},"properties":{"type":"Feature","mesh_id":"503200224","municipality_code":"38442","municipality":"伊方町","total_population":5,"population_65plus":null,"population_75plus":null,"aging_rate_65plus":null,"aging_rate_75plus":null,"population_status":"2","population_status_target":"503200221","population_aggregation_target":null,"age_65plus_missing":true,"age_75plus_missing":true,"age_quality_flag":"ok","data_completeness":"partial"}},{"type":"Feature","geometry":{"type":"Polygon","coordinates":[[[132.0375,33.358333333333334],[132.04375,33.358333333333334],[132.04375,33.362500000000004],[132.0375,33.362500000000004],[132.0375,33.358333333333334]]]},"properties":{"type":"Feature","mesh_id":"503200331","municipality_code":"38442","municipality":"伊方町","total_population":7,"population_65plus":null,"population_75plus":null,"aging_rate_65plus":null,"aging_rate_75plus":null,"population_status":"2","population_status_target":"503200332","population_aggregation_target":null,"age_65plus_missing":true,"age_75plus_missing":true,"age_quality_flag":"ok","data_completeness":"partial"}},{"type":"Feature","geometry":{"type":"Polygon","coordinates":[[[132.0375,33.362500000000004],[132.04375,33.362500000000004],[132.04375,33.366666666666674],[132.0375,33.366666666666674],[132.0375,33.362500000000004]]]},"properties":{"type":"Feature","mesh_id":"503200332","municipality_code":"38442","municipality":"伊方町","total_population":69,"population_65plus":47,"population_75plus":24,"aging_rate_65plus":0.6811594202898551,"aging_rate_75plus":0.34782608695652173,"population_status":"1","population_status_target":null,"population_aggregation_target":"503200331","age_65plus_missing":false,"age_75plus_missing":false,"age_quality_flag":"ok","data_completeness":"complete"}},{"type":"Feature","geometry":{"type":"Polygon","coordinates":[[[132.04375,33.358333333333334],[132.04999999999998,33.358333333333334],[132.04999999999998,33.362500000000004],[132.04375,33.362500000000004],[132.04375,33.358333333333334]]]},"properties":{"type":"Feature","mesh_id":"503200333","municipality_code":"38442","municipality":"伊方町","total_population":6,"population_65plus":null,"population_75plus":null,"aging_rate_65plus":null,"aging_rate_75plus":null,"population_status":"2","population_status_target":"503200334","population_aggregation_target":null,"age_65plus_missing":true,"age_75plus_missing":true,"age_quality_flag":"ok","data_completeness":"partial"}},{"type":"Feature","geometry":{"type":"Polygon","coordinates":[[[132.04375,33.362500000000004],[132.04999999999998,33.362500000000004],[132.04999999999998,33.366666666666674],[132.04375,33.366666666666674],[132.04375,33.362500000000004]]]},"properties":{"type":"Feature","mesh_id":"503200334","municipality_code":"38442","municipality":"伊方町","total_population":78,"population_65plus":35,"population_75plus":18,"aging_rate_65plus":0.44871794871794873,"aging_rate_75plus":0.23076923076923078,"population_status":"1","population_status_target":null,"population_aggregation_target":"503200333","age_65plus_missing":false,"age_75plus_missing":false,"age_quality_flag":"ok","data_completeness":"complete"}},{"type":"Feature","geometry":{"type":"Polygon","coordinates":[[[132.05,33.36666666666667],[132.05625,33.36666666666667],[132.05625,33.37083333333334],[132.05,33.37083333333334],[132.05,33.36666666666667]]]},"properties":{"type":"Feature","mesh_id":"503200441","municipality_code":"38442","municipality":"伊方町","total_population":45,"population_65plus":17,"population_75plus":13,"aging_rate_65plus":0.37777777777777777,"aging_rate_75plus":0.28888888888888886,"population_status":"0","population_status_target":null,"population_aggregation_target":null,"age_65plus_missing":false,"age_75plus_missing":false,"age_quality_flag":"ok","data_completeness":"complete"}},{"type":"Feature","geometry":{"type":"Polygon","coordinates":[[[132.10625,33.37083333333334],[132.11249999999998,33.37083333333334],[132.11249999999998,33.37500000000001],[132.10625,33.37500000000001],[132.10625,33.37083333333334]]]},"properties":{"type":"Feature","mesh_id":"503200484","municipality_code":"38442","municipality":"伊方町","total_population":41,"population_65plus":30,"population_75plus":15,"aging_rate_65plus":0.7317073170731707,"aging_rate_75plus":0.36585365853658536,"population_status":"0","population_status_target":null,"population_aggregation_target":null,"age_65plus_missing":false,"age_75plus_missing":false,"age_quality_flag":"ok","data_completeness":"complete"}},{"type":"Feature","geometry":{"type":"Polygon","coordinates":[[[132.1125,33.36666666666667],[132.11875,33.36666666666667],[132.11875,33.37083333333334],[132.1125,33.37083333333334],[132.1125,33.36666666666667]]]},"properties":{"type":"Feature","mesh_id":"503200491","municipality_code":"38442","municipality":"伊方町","total_population":37,"population_65plus":26,"population_75plus":17,"aging_rate_65plus":0.7027027027027027,"aging_rate_75plus":0.4594594594594595,"population_status":"0","population_status_target":null,"population_aggregation_target":null,"age_65plus_missing":false,"age_75plus_missing":false,"age_quality_flag":"ok","data_completeness":"complete"}},{"type":"Feature","geometry":{"type":"Polygon","coordinates":[[[132.11875,33.36666666666667],[132.125,33.36666666666667],[132.125,33.37083333333334],[132.11875,33.37083333333334],[132.11875,33.36666666666667]]]},"properties":{"type":"Feature","mesh_id":"503200493","municipality_code":"38442","municipality":"伊方町","total_population":48,"population_65plus":41,"population_75plus":27,"aging_rate_65plus":0.8541666666666666,"aging_rate_75plus":0.5625,"population_status":"1","population_status_target":null,"population_aggregation_target":"503200494","age_65plus_missing":false,"age_75plus_missing":false,"age_quality_flag":"ok","data_completeness":"complete"}},{"type":"Feature","geometry":{"type":"Polygon","coordinates":[[[132.11875,33.37083333333334],[132.125,33.37083333333334],[132.125,33.37500000000001],[132.11875,33.37500000000001],[132.11875,33.37083333333334]]]},"properties":{"type":"Feature","mesh_id":"503200494","municipality_code":"38442","municipality":"伊方町","total_population":3,"population_65plus":null,"population_75plus":null,"aging_rate_65plus":null,"aging_rate_75plus":null,"population_status":"2","population_status_target":"503200493","population_aggregation_target":null,"age_65plus_missing":true,"age_75plus_missing":true,"age_quality_flag":"ok","data_completeness":"partial"}},{"type":"Feature","geometry":{"type":"Polygon","coordinates":[[[132.06875,33.375],[132.075,33.375],[132.075,33.37916666666667],[132.06875,33.37916666666667],[132.06875,33.375]]]},"properties":{"type":"Feature","mesh_id":"503200553","municipality_code":"38442","municipality":"伊方町","total_population":17,"population_65plus":15,"population_75plus":8,"aging_rate_65plus":0.8823529411764706,"aging_rate_75plus":0.47058823529411764,"population_status":"0","population_status_target":null,"population_aggregation_target":null,"age_65plus_missing":false,"age_75plus_missing":false,"age_quality_flag":"ok","data_completeness":"complete"}},{"type":"Feature","geometry":{"type":"Polygon","coordinates":[[[132.1125,33.375],[132.11875,33.375],[132.11875,33.37916666666667],[132.1125,33.37916666666667],[132.1125,33.375]]]},"properties":{"type":"Feature","mesh_id":"503200591","municipality_code":"38442","municipality":"伊方町","total_population":23,"population_65plus":20,"population_75plus":11,"aging_rate_65plus":0.8695652173913043,"aging_rate_75plus":0.4782608695652174,"population_status":"0","population_status_target":null,"population_aggregation_target":null,"age_65plus_missing":false,"age_75plus_missing":false,"age_quality_flag":"ok","data_completeness":"complete"}},{"type":"Feature","geometry":{"type":"Polygon","coordinates":[[[132.11875,33.375],[132.125,33.375],[132.125,33.37916666666667],[132.11875,33.37916666666667],[132.11875,33.375]]]},"properties":{"type":"Feature","mesh_id":"503200593","municipality_code":"38442","municipality":"伊方町","total_population":10,"population_65plus":null,"population_75plus":null,"aging_rate_65plus":null,"aging_rate_75plus":null,"population_status":"2","population_status_target":"503200594","population_aggregation_target":null,"age_65plus_missing":true,"age_75plus_missing":true,"age_quality_flag":"ok","data_completeness":"partial"}},{"type":"Feature","geometry":{"type":"Polygon","coordinates":[[[132.11875,33.37916666666667],[132.125,33.37916666666667],[132.125,33.38333333333334],[132.11875,33.38333333333334],[132.11875,33.37916666666667]]]},"properties":{"type":"Feature","mesh_id":"503200594","municipality_code":"38442","municipality":"伊方町","total_population":62,"population_65plus":41,"population_75plus":26,"aging_rate_65plus":0.6612903225806451,"aging_rate_75plus":0.41935483870967744,"population_status":"1","population_status_target":null,"population_aggregation_target":"503200593","age_65plus_missing":false,"age_75plus_missing":false,"age_quality_flag":"ok","data_completeness":"complete"}},{"type":"Feature","geometry":{"type":"Polygon","coordinates":[[[132.075,33.38333333333333],[132.08124999999998,33.38333333333333],[132.08124999999998,33.3875],[132.075,33.3875],[132.075,33.38333333333333]]]},"properties":{"type":"Feature","mesh_id":"503200661","municipality_code":"38442","municipality":"伊方町","total_population":35,"population_65plus":24,"population_75plus":18,"aging_rate_65plus":0.6857142857142857,"aging_rate_75plus":0.5142857142857142,"population_status":"0","population_status_target":null,"population_aggregation_target":null,"age_65plus_missing":false,"age_75plus_missing":false,"age_quality_flag":"ok","data_completeness":"complete"}},{"type":"Feature","geometry":{"type":"Polygon","coordinates":[[[132.08124999999998,33.38333333333333],[132.08749999999998,33.38333333333333],[132.08749999999998,33.3875],[132.08124999999998,33.3875],[132.08124999999998,33.38333333333333]]]},"properties":{"type":"Feature","mesh_id":"503200663","municipality_code":"38442","municipality":"伊方町","total_population":77,"population_65plus":45,"population_75plus":27,"aging_rate_65plus":0.5844155844155844,"aging_rate_75plus":0.35064935064935066,"population_status":"0","population_status_target":null,"population_aggregation_target":null,"age_65plus_missing":false,"age_75plus_missing":false,"age_quality_flag":"ok","data_completeness":"complete"}},{"type":"Feature","geometry":{"type":"Polygon","coordinates":[[[132.08124999999998,33.3875],[132.08749999999998,33.3875],[132.08749999999998,33.39166666666667],[132.08124999999998,33.39166666666667],[132.08124999999998,33.3875]]]},"properties":{"type":"Feature","mesh_id":"503200664","municipality_code":"38442","municipality":"伊方町","total_population":38,"population_65plus":29,"population_75plus":19,"aging_rate_65plus":0.7631578947368421,"aging_rate_75plus":0.5,"population_status":"1","population_status_target":null,"population_aggregation_target":"503200762","age_65plus_missing":false,"age_75plus_missing":false,"age_quality_flag":"ok","data_completeness":"complete"}},{"type":"Feature","geometry":{"type":"Polygon","coordinates":[[[132.10625,33.3875],[132.11249999999998,33.3875],[132.11249999999998,33.39166666666667],[132.10625,33.39166666666667],[132.10625,33.3875]]]},"properties":{"type":"Feature","mesh_id":"503200684","municipality_code":"38442","municipality":"伊方町","total_population":49,"population_65plus":null,"population_75plus":null,"aging_rate_65plus":null,"aging_rate_75plus":null,"population_status":"2","population_status_target":"503200791","population_aggregation_target":null,"age_65plus_missing":true,"age_75plus_missing":true,"age_quality_flag":"ok","data_completeness":"partial"}},{"type":"Feature","geometry":{"type":"Polygon","coordinates":[[[132.11875,33.38333333333333],[132.125,33.38333333333333],[132.125,33.3875],[132.11875,33.3875],[132.11875,33.38333333333333]]]},"properties":{"type":"Feature","mesh_id":"503200693","municipality_code":"38442","municipality":"伊方町","total_population":61,"population_65plus":32,"population_75plus":23,"aging_rate_65plus":0.5245901639344263,"aging_rate_75plus":0.3770491803278688,"population_status":"0","population_status_target":null,"population_aggregation_target":null,"age_65plus_missing":false,"age_75plus_missing":false,"age_quality_flag":"ok","data_completeness":"complete"}},{"type":"Feature","geometry":{"type":"Polygon","coordinates":[[[132.11875,33.3875],[132.125,33.3875],[132.125,33.39166666666667],[132.11875,33.39166666666667],[132.11875,33.3875]]]},"properties":{"type":"Feature","mesh_id":"503200694","municipality_code":"38442","municipality":"伊方町","total_population":485,"population_65plus":243,"population_75plus":132,"aging_rate_65plus":0.5010309278350515,"aging_rate_75plus":0.2721649484536082,"population_status":"0","population_status_target":null,"population_aggregation_target":null,"age_65plus_missing":false,"age_75plus_missing":false,"age_quality_flag":"ok","data_completeness":"complete"}},{"type":"Feature","geometry":{"type":"Polygon","coordinates":[[[132.1125,33.391666666666666],[132.11875,33.391666666666666],[132.11875,33.395833333333336],[132.1125,33.395833333333336],[132.1125,33.391666666666666]]]},"properties":{"type":"Feature","mesh_id":"503200791","municipality_code":"38442","municipality":"伊方町","total_population":92,"population_65plus":87,"population_75plus":68,"aging_rate_65plus":0.9456521739130435,"aging_rate_75plus":0.7391304347826086,"population_status":"1","population_status_target":null,"population_aggregation_target":"503200684","age_65plus_missing":false,"age_75plus_missing":false,"age_quality_flag":"ok","data_completeness":"complete"}},{"type":"Feature","geometry":{"type":"Polygon","coordinates":[[[132.1125,33.40833333333334],[132.11875,33.40833333333334],[132.11875,33.41250000000001],[132.1125,33.41250000000001],[132.1125,33.40833333333334]]]},"properties":{"type":"Feature","mesh_id":"503200991","municipality_code":"38442","municipality":"伊方町","total_population":45,"population_65plus":35,"population_75plus":20,"aging_rate_65plus":0.7777777777777778,"aging_rate_75plus":0.4444444444444444,"population_status":"1","population_status_target":null,"population_aggregation_target":"503200992","age_65plus_missing":false,"age_75plus_missing":false,"age_quality_flag":"ok","data_completeness":"complete"}},{"type":"Feature","geometry":{"type":"Polygon","coordinates":[[[132.1125,33.41250000000001],[132.11875,33.41250000000001],[132.11875,33.41666666666668],[132.1125,33.41666666666668],[132.1125,33.41250000000001]]]},"properties":{"type":"Feature","mesh_id":"503200992","municipality_code":"38442","municipality":"伊方町","total_population":2,"population_65plus":null,"population_75plus":null,"aging_rate_65plus":null,"aging_rate_75plus":null,"population_status":"2","population_status_target":"503200991","population_aggregation_target":null,"age_65plus_missing":true,"age_75plus_missing":true,"age_quality_flag":"ok","data_completeness":"partial"}},{"type":"Feature","geometry":{"type":"Polygon","coordinates":[[[132.11875,33.40833333333334],[132.125,33.40833333333334],[132.125,33.41250000000001],[132.11875,33.41250000000001],[132.11875,33.40833333333334]]]},"properties":{"type":"Feature","mesh_id":"503200993","municipality_code":"38442","municipality":"伊方町","total_population":17,"population_65plus":13,"population_75plus":6,"aging_rate_65plus":0.7647058823529411,"aging_rate_75plus":0.35294117647058826,"population_status":"0","population_status_target":null,"population_aggregation_target":null,"age_65plus_missing":false,"age_75plus_missing":false,"age_quality_flag":"ok","data_completeness":"complete"}},{"type":"Feature","geometry":{"type":"Polygon","coordinates":[[[132.14374999999998,33.37916666666667],[132.14999999999998,33.37916666666667],[132.14999999999998,33.38333333333334],[132.14374999999998,33.38333333333334],[132.14374999999998,33.37916666666667]]]},"properties":{"type":"Feature","mesh_id":"503201514","municipality_code":"38442","municipality":"伊方町","total_population":58,"population_65plus":34,"population_75plus":15,"aging_rate_65plus":0.5862068965517241,"aging_rate_75plus":0.25862068965517243,"population_status":"0","population_status_target":null,"population_aggregation_target":null,"age_65plus_missing":false,"age_75plus_missing":false,"age_quality_flag":"ok","data_completeness":"complete"}},{"type":"Feature","geometry":{"type":"Polygon","coordinates":[[[132.125,33.38333333333333],[132.13125,33.38333333333333],[132.13125,33.3875],[132.125,33.3875],[132.125,33.38333333333333]]]},"properties":{"type":"Feature","mesh_id":"503201601","municipality_code":"38442","municipality":"伊方町","total_population":73,"population_65plus":25,"population_75plus":14,"aging_rate_65plus":0.3424657534246575,"aging_rate_75plus":0.1917808219178082,"population_status":"0","population_status_target":null,"population_aggregation_target":null,"age_65plus_missing":false,"age_75plus_missing":false,"age_quality_flag":"ok","data_completeness":"complete"}},{"type":"Feature","geometry":{"type":"Polygon","coordinates":[[[132.13125,33.38333333333333],[132.1375,33.38333333333333],[132.1375,33.3875],[132.13125,33.3875],[132.13125,33.38333333333333]]]},"properties":{"type":"Feature","mesh_id":"503201603","municipality_code":"38442","municipality":"伊方町","total_population":87,"population_65plus":18,"population_75plus":10,"aging_rate_65plus":0.20689655172413793,"aging_rate_75plus":0.11494252873563218,"population_status":"0","population_status_target":null,"population_aggregation_target":null,"age_65plus_missing":false,"age_75plus_missing":false,"age_quality_flag":"ok","data_completeness":"complete"}},{"type":"Feature","geometry":{"type":"Polygon","coordinates":[[[132.1375,33.3875],[132.14374999999998,33.3875],[132.14374999999998,33.39166666666667],[132.1375,33.39166666666667],[132.1375,33.3875]]]},"properties":{"type":"Feature","mesh_id":"503201612","municipality_code":"38442","municipality":"伊方町","total_population":24,"population_65plus":20,"population_75plus":11,"aging_rate_65plus":0.8333333333333334,"aging_rate_75plus":0.4583333333333333,"population_status":"0","population_status_target":null,"population_aggregation_target":null,"age_65plus_missing":false,"age_75plus_missing":false,"age_quality_flag":"ok","data_completeness":"complete"}},{"type":"Feature","geometry":{"type":"Polygon","coordinates":[[[132.1375,33.391666666666666],[132.14374999999998,33.391666666666666],[132.14374999999998,33.395833333333336],[132.1375,33.395833333333336],[132.1375,33.391666666666666]]]},"properties":{"type":"Feature","mesh_id":"503201711","municipality_code":"38442","municipality":"伊方町","total_population":2,"population_65plus":null,"population_75plus":null,"aging_rate_65plus":null,"aging_rate_75plus":null,"population_status":"2","population_status_target":"503201802","population_aggregation_target":null,"age_65plus_missing":true,"age_75plus_missing":true,"age_quality_flag":"ok","data_completeness":"partial"}},{"type":"Feature","geometry":{"type":"Polygon","coordinates":[[[132.14374999999998,33.395833333333336],[132.14999999999998,33.395833333333336],[132.14999999999998,33.400000000000006],[132.14374999999998,33.400000000000006],[132.14374999999998,33.395833333333336]]]},"properties":{"type":"Feature","mesh_id":"503201714","municipality_code":"38442","municipality":"伊方町","total_population":2,"population_65plus":null,"population_75plus":null,"aging_rate_65plus":null,"aging_rate_75plus":null,"population_status":"2","population_status_target":"503201802","population_aggregation_target":null,"age_65plus_missing":true,"age_75plus_missing":true,"age_quality_flag":"ok","data_completeness":"partial"}},{"type":"Feature","geometry":{"type":"Polygon","coordinates":[[[132.125,33.404166666666676],[132.13125,33.404166666666676],[132.13125,33.408333333333346],[132.125,33.408333333333346],[132.125,33.404166666666676]]]},"properties":{"type":"Feature","mesh_id":"503201802","municipality_code":"38442","municipality":"伊方町","total_population":160,"population_65plus":98,"population_75plus":52,"aging_rate_65plus":0.6125,"aging_rate_75plus":0.325,"population_status":"1","population_status_target":null,"population_aggregation_target":"503201711;503201714","age_65plus_missing":false,"age_75plus_missing":false,"age_quality_flag":"ok","data_completeness":"complete"}},{"type":"Feature","geometry":{"type":"Polygon","coordinates":[[[132.13125,33.400000000000006],[132.1375,33.400000000000006],[132.1375,33.404166666666676],[132.13125,33.404166666666676],[132.13125,33.400000000000006]]]},"properties":{"type":"Feature","mesh_id":"503201803","municipality_code":"38442","municipality":"伊方町","total_population":31,"population_65plus":24,"population_75plus":15,"aging_rate_65plus":0.7741935483870968,"aging_rate_75plus":0.4838709677419355,"population_status":"0","population_status_target":null,"population_aggregation_target":null,"age_65plus_missing":false,"age_75plus_missing":false,"age_quality_flag":"ok","data_completeness":"complete"}},{"type":"Feature","geometry":{"type":"Polygon","coordinates":[[[132.1375,33.400000000000006],[132.14374999999998,33.400000000000006],[132.14374999999998,33.404166666666676],[132.1375,33.404166666666676],[132.1375,33.400000000000006]]]},"properties":{"type":"Feature","mesh_id":"503201811","municipality_code":"38442","municipality":"伊方町","total_population":120,"population_65plus":62,"population_75plus":30,"aging_rate_65plus":0.5166666666666667,"aging_rate_75plus":0.25,"population_status":"0","population_status_target":null,"population_aggregation_target":null,"age_65plus_missing":false,"age_75plus_missing":false,"age_quality_flag":"ok","data_completeness":"complete"}},{"type":"Feature","geometry":{"type":"Polygon","coordinates":[[[132.15625,33.400000000000006],[132.1625,33.400000000000006],[132.1625,33.404166666666676],[132.15625,33.404166666666676],[132.15625,33.400000000000006]]]},"properties":{"type":"Feature","mesh_id":"503201823","municipality_code":"38442","municipality":"伊方町","total_population":18,"population_65plus":14,"population_75plus":8,"aging_rate_65plus":0.7777777777777778,"aging_rate_75plus":0.4444444444444444,"population_status":"0","population_status_target":null,"population_aggregation_target":null,"age_65plus_missing":false,"age_75plus_missing":false,"age_quality_flag":"ok","data_completeness":"complete"}},{"type":"Feature","geometry":{"type":"Polygon","coordinates":[[[132.15625,33.404166666666676],[132.1625,33.404166666666676],[132.1625,33.408333333333346],[132.15625,33.408333333333346],[132.15625,33.404166666666676]]]},"properties":{"type":"Feature","mesh_id":"503201824","municipality_code":"38442","municipality":"伊方町","total_population":18,"population_65plus":15,"population_75plus":12,"aging_rate_65plus":0.8333333333333334,"aging_rate_75plus":0.6666666666666666,"population_status":"0","population_status_target":null,"population_aggregation_target":null,"age_65plus_missing":false,"age_75plus_missing":false,"age_quality_flag":"ok","data_completeness":"complete"}},{"type":"Feature","geometry":{"type":"Polygon","coordinates":[[[132.1375,33.41250000000001],[132.14374999999998,33.41250000000001],[132.14374999999998,33.41666666666668],[132.1375,33.41666666666668],[132.1375,33.41250000000001]]]},"properties":{"type":"Feature","mesh_id":"503201912","municipality_code":"38442","municipality":"伊方町","total_population":38,"population_65plus":20,"population_75plus":11,"aging_rate_65plus":0.5263157894736842,"aging_rate_75plus":0.2894736842105263,"population_status":"1","population_status_target":null,"population_aggregation_target":"503201914","age_65plus_missing":false,"age_75plus_missing":false,"age_quality_flag":"ok","data_completeness":"complete"}},{"type":"Feature","geometry":{"type":"Polygon","coordinates":[[[132.14374999999998,33.41250000000001],[132.14999999999998,33.41250000000001],[132.14999999999998,33.41666666666668],[132.14374999999998,33.41666666666668],[132.14374999999998,33.41250000000001]]]},"properties":{"type":"Feature","mesh_id":"503201914","municipality_code":"38442","municipality":"伊方町","total_population":1,"population_65plus":null,"population_75plus":null,"aging_rate_65plus":null,"aging_rate_75plus":null,"population_status":"2","population_status_target":"503201912","population_aggregation_target":null,"age_65plus_missing":true,"age_75plus_missing":true,"age_quality_flag":"ok","data_completeness":"partial"}},{"type":"Feature","geometry":{"type":"Polygon","coordinates":[[[132.18125,33.41250000000001],[132.1875,33.41250000000001],[132.1875,33.41666666666668],[132.18125,33.41666666666668],[132.18125,33.41250000000001]]]},"properties":{"type":"Feature","mesh_id":"503201944","municipality_code":"38442","municipality":"伊方町","total_population":3,"population_65plus":null,"population_75plus":null,"aging_rate_65plus":null,"aging_rate_75plus":null,"population_status":"2","population_status_target":"503201953","population_aggregation_target":null,"age_65plus_missing":true,"age_75plus_missing":true,"age_quality_flag":"ok","data_completeness":"partial"}},{"type":"Feature","geometry":{"type":"Polygon","coordinates":[[[132.19375,33.41250000000001],[132.2,33.41250000000001],[132.2,33.41666666666668],[132.19375,33.41666666666668],[132.19375,33.41250000000001]]]},"properties":{"type":"Feature","mesh_id":"503201954","municipality_code":"38442","municipality":"伊方町","total_population":79,"population_65plus":22,"population_75plus":10,"aging_rate_65plus":0.27848101265822783,"aging_rate_75plus":0.12658227848101267,"population_status":"0","population_status_target":null,"population_aggregation_target":null,"age_65plus_missing":false,"age_75plus_missing":false,"age_quality_flag":"ok","data_completeness":"complete"}},{"type":"Feature","geometry":{"type":"Polygon","coordinates":[[[132.15625,33.429166666666674],[132.1625,33.429166666666674],[132.1625,33.433333333333344],[132.15625,33.433333333333344],[132.15625,33.429166666666674]]]},"properties":{"type":"Feature","mesh_id":"503211124","municipality_code":"38442","municipality":"伊方町","total_population":47,"population_65plus":30,"population_75plus":22,"aging_rate_65plus":0.6382978723404256,"aging_rate_75plus":0.46808510638297873,"population_status":"0","population_status_target":null,"population_aggregation_target":null,"age_65plus_missing":false,"age_75plus_missing":false,"age_quality_flag":"ok","data_completeness":"complete"}},{"type":"Feature","geometry":{"type":"Polygon","coordinates":[[[132.175,33.425000000000004],[132.18125,33.425000000000004],[132.18125,33.429166666666674],[132.175,33.429166666666674],[132.175,33.425000000000004]]]},"properties":{"type":"Feature","mesh_id":"503211141","municipality_code":"38442","municipality":"伊方町","total_population":27,"population_65plus":14,"population_75plus":7,"aging_rate_65plus":0.5185185185185185,"aging_rate_75plus":0.25925925925925924,"population_status":"0","population_status_target":null,"population_aggregation_target":null,"age_65plus_missing":false,"age_75plus_missing":false,"age_quality_flag":"ok","data_completeness":"complete"}},{"type":"Feature","geometry":{"type":"Polygon","coordinates":[[[132.18125,33.425000000000004],[132.1875,33.425000000000004],[132.1875,33.429166666666674],[132.18125,33.429166666666674],[132.18125,33.425000000000004]]]},"properties":{"type":"Feature","mesh_id":"503211143","municipality_code":"38442","municipality":"伊方町","total_population":27,"population_65plus":21,"population_75plus":8,"aging_rate_65plus":0.7777777777777778,"aging_rate_75plus":0.2962962962962963,"population_status":"0","population_status_target":null,"population_aggregation_target":null,"age_65plus_missing":false,"age_75plus_missing":false,"age_quality_flag":"ok","data_completeness":"complete"}},{"type":"Feature","geometry":{"type":"Polygon","coordinates":[[[132.1875,33.429166666666674],[132.19375,33.429166666666674],[132.19375,33.433333333333344],[132.1875,33.433333333333344],[132.1875,33.429166666666674]]]},"properties":{"type":"Feature","mesh_id":"503211152","municipality_code":"38442","municipality":"伊方町","total_population":5,"population_65plus":5,"population_75plus":4,"aging_rate_65plus":1.0,"aging_rate_75plus":0.8,"population_status":"1","population_status_target":null,"population_aggregation_target":"503211153;503211154","age_65plus_missing":false,"age_75plus_missing":false,"age_quality_flag":"ok","data_completeness":"complete"}},{"type":"Feature","geometry":{"type":"Polygon","coordinates":[[[132.19375,33.425000000000004],[132.2,33.425000000000004],[132.2,33.429166666666674],[132.19375,33.429166666666674],[132.19375,33.425000000000004]]]},"properties":{"type":"Feature","mesh_id":"503211153","municipality_code":"38442","municipality":"伊方町","total_population":4,"population_65plus":null,"population_75plus":null,"aging_rate_65plus":null,"aging_rate_75plus":null,"population_status":"2","population_status_target":"503211152","population_aggregation_target":null,"age_65plus_missing":true,"age_75plus_missing":true,"age_quality_flag":"ok","data_completeness":"partial"}},{"type":"Feature","geometry":{"type":"Polygon","coordinates":[[[132.19375,33.429166666666674],[132.2,33.429166666666674],[132.2,33.433333333333344],[132.19375,33.433333333333344],[132.19375,33.429166666666674]]]},"properties":{"type":"Feature","mesh_id":"503211154","municipality_code":"38442","municipality":"伊方町","total_population":2,"population_65plus":null,"population_75plus":null,"aging_rate_65plus":null,"aging_rate_75plus":null,"population_status":"2","population_status_target":"503211152","population_aggregation_target":null,"age_65plus_missing":true,"age_75plus_missing":true,"age_quality_flag":"ok","data_completeness":"partial"}},{"type":"Feature","geometry":{"type":"Polygon","coordinates":[[[132.2,33.425000000000004],[132.20624999999998,33.425000000000004],[132.20624999999998,33.429166666666674],[132.2,33.429166666666674],[132.2,33.425000000000004]]]},"properties":{"type":"Feature","mesh_id":"503211161","municipality_code":"38442","municipality":"伊方町","total_population":18,"population_65plus":13,"population_75plus":4,"aging_rate_65plus":0.7222222222222222,"aging_rate_75plus":0.2222222222222222,"population_status":"0","population_status_target":null,"population_aggregation_target":null,"age_65plus_missing":false,"age_75plus_missing":false,"age_quality_flag":"ok","data_completeness":"complete"}},{"type":"Feature","geometry":{"type":"Polygon","coordinates":[[[132.2,33.429166666666674],[132.20624999999998,33.429166666666674],[132.20624999999998,33.433333333333344],[132.2,33.433333333333344],[132.2,33.429166666666674]]]},"properties":{"type":"Feature","mesh_id":"503211162","municipality_code":"38442","municipality":"伊方町","total_population":14,"population_65plus":4,"population_75plus":1,"aging_rate_65plus":0.2857142857142857,"aging_rate_75plus":0.07142857142857142,"population_status":"1","population_status_target":null,"population_aggregation_target":"503211164","age_65plus_missing":false,"age_75plus_missing":false,"age_quality_flag":"ok","data_completeness":"complete"}},{"type":"Feature","geometry":{"type":"Polygon","coordinates":[[[132.20624999999998,33.429166666666674],[132.21249999999998,33.429166666666674],[132.21249999999998,33.433333333333344],[132.20624999999998,33.433333333333344],[132.20624999999998,33.429166666666674]]]},"properties":{"type":"Feature","mesh_id":"503211164","municipality_code":"38442","municipality":"伊方町","total_population":1,"population_65plus":null,"population_75plus":null,"aging_rate_65plus":null,"aging_rate_75plus":null,"population_status":"2","population_status_target":"503211162","population_aggregation_target":null,"age_65plus_missing":true,"age_75plus_missing":true,"age_quality_flag":"ok","data_completeness":"partial"}},{"type":"Feature","geometry":{"type":"Polygon","coordinates":[[[132.2125,33.425000000000004],[132.21875,33.425000000000004],[132.21875,33.429166666666674],[132.2125,33.429166666666674],[132.2125,33.425000000000004]]]},"properties":{"type":"Feature","mesh_id":"503211171","municipality_code":"38442","municipality":"伊方町","total_population":5,"population_65plus":null,"population_75plus":null,"aging_rate_65plus":null,"aging_rate_75plus":null,"population_status":"2","population_status_target":"503211172","population_aggregation_target":null,"age_65plus_missing":true,"age_75plus_missing":true,"age_quality_flag":"ok","data_completeness":"partial"}},{"type":"Feature","geometry":{"type":"Polygon","coordinates":[[[132.2125,33.429166666666674],[132.21875,33.429166666666674],[132.21875,33.433333333333344],[132.2125,33.433333333333344],[132.2125,33.429166666666674]]]},"properties":{"type":"Feature","mesh_id":"503211172","municipality_code":"38442","municipality":"伊方町","total_population":189,"population_65plus":91,"population_75plus":53,"aging_rate_65plus":0.48148148148148145,"aging_rate_75plus":0.2804232804232804,"population_status":"1","population_status_target":null,"population_aggregation_target":"503211074;503211171","age_65plus_missing":false,"age_75plus_missing":false,"age_quality_flag":"ok","data_completeness":"complete"}},{"type":"Feature","geometry":{"type":"Polygon","coordinates":[[[132.225,33.425000000000004],[132.23125,33.425000000000004],[132.23125,33.429166666666674],[132.225,33.429166666666674],[132.225,33.425000000000004]]]},"properties":{"type":"Feature","mesh_id":"503211181","municipality_code":"38442","municipality":"伊方町","total_population":105,"population_65plus":78,"population_75plus":73,"aging_rate_65plus":0.7428571428571429,"aging_rate_75plus":0.6952380952380952,"population_status":"1","population_status_target":null,"population_aggregation_target":"503211182;503211183","age_65plus_missing":false,"age_75plus_missing":false,"age_quality_flag":"ok","data_completeness":"complete"}},{"type":"Feature","geometry":{"type":"Polygon","coordinates":[[[132.225,33.429166666666674],[132.23125,33.429166666666674],[132.23125,33.433333333333344],[132.225,33.433333333333344],[132.225,33.429166666666674]]]},"properties":{"type":"Feature","mesh_id":"503211182","municipality_code":"38442","municipality":"伊方町","total_population":7,"population_65plus":null,"population_75plus":null,"aging_rate_65plus":null,"aging_rate_75plus":null,"population_status":"2","population_status_target":"503211181","population_aggregation_target":null,"age_65plus_missing":true,"age_75plus_missing":true,"age_quality_flag":"ok","data_completeness":"partial"}},{"type":"Feature","geometry":{"type":"Polygon","coordinates":[[[132.23125,33.425000000000004],[132.23749999999998,33.425000000000004],[132.23749999999998,33.429166666666674],[132.23125,33.429166666666674],[132.23125,33.425000000000004]]]},"properties":{"type":"Feature","mesh_id":"503211183","municipality_code":"38442","municipality":"伊方町","total_population":1,"population_65plus":null,"population_75plus":null,"aging_rate_65plus":null,"aging_rate_75plus":null,"population_status":"2","population_status_target":"503211181","population_aggregation_target":null,"age_65plus_missing":true,"age_75plus_missing":true,"age_quality_flag":"ok","data_completeness":"partial"}},{"type":"Feature","geometry":{"type":"Polygon","coordinates":[[[132.19375,33.44583333333334],[132.2,33.44583333333334],[132.2,33.45000000000001],[132.19375,33.45000000000001],[132.19375,33.44583333333334]]]},"properties":{"type":"Feature","mesh_id":"503211354","municipality_code":"38442","municipality":"伊方町","total_population":7,"population_65plus":null,"population_75plus":null,"aging_rate_65plus":null,"aging_rate_75plus":null,"population_status":"2","population_status_target":"503211352","population_aggregation_target":null,"age_65plus_missing":true,"age_75plus_missing":true,"age_quality_flag":"ok","data_completeness":"partial"}},{"type":"Feature","geometry":{"type":"Polygon","coordinates":[[[132.2,33.44166666666667],[132.20624999999998,33.44166666666667],[132.20624999999998,33.44583333333334],[132.2,33.44583333333334],[132.2,33.44166666666667]]]},"properties":{"type":"Feature","mesh_id":"503211361","municipality_code":"38442","municipality":"伊方町","total_population":10,"population_65plus":8,"population_75plus":4,"aging_rate_65plus":0.8,"aging_rate_75plus":0.4,"population_status":"0","population_status_target":null,"population_aggregation_target":null,"age_65plus_missing":false,"age_75plus_missing":false,"age_quality_flag":"ok","data_completeness":"complete"}},{"type":"Feature","geometry":{"type":"Polygon","coordinates":[[[132.2125,33.44166666666667],[132.21875,33.44166666666667],[132.21875,33.44583333333334],[132.2125,33.44583333333334],[132.2125,33.44166666666667]]]},"properties":{"type":"Feature","mesh_id":"503211371","municipality_code":"38442","municipality":"伊方町","total_population":23,"population_65plus":null,"population_75plus":null,"aging_rate_65plus":null,"aging_rate_75plus":null,"population_status":"1","population_status_target":null,"population_aggregation_target":"503211372","age_65plus_missing":true,"age_75plus_missing":true,"age_quality_flag":"inconsistent_with_total","data_completeness":"partial"}},{"type":"Feature","geometry":{"type":"Polygon","coordinates":[[[132.225,33.44166666666667],[132.23125,33.44166666666667],[132.23125,33.44583333333334],[132.225,33.44583333333334],[132.225,33.44166666666667]]]},"properties":{"type":"Feature","mesh_id":"503211381","municipality_code":"38442","municipality":"伊方町","total_population":7,"population_65plus":null,"population_75plus":null,"aging_rate_65plus":null,"aging_rate_75plus":null,"population_status":"2","population_status_target":"503211383","population_aggregation_target":null,"age_65plus_missing":true,"age_75plus_missing":true,"age_quality_flag":"ok","data_completeness":"partial"}},{"type":"Feature","geometry":{"type":"Polygon","coordinates":[[[132.23125,33.44166666666667],[132.23749999999998,33.44166666666667],[132.23749999999998,33.44583333333334],[132.23125,33.44583333333334],[132.23125,33.44166666666667]]]},"properties":{"type":"Feature","mesh_id":"503211383","municipality_code":"38442","municipality":"伊方町","total_population":57,"population_65plus":34,"population_75plus":20,"aging_rate_65plus":0.5964912280701754,"aging_rate_75plus":0.3508771929824561,"population_status":"1","population_status_target":null,"population_aggregation_target":"503211381","age_65plus_missing":false,"age_75plus_missing":false,"age_quality_flag":"ok","data_completeness":"complete"}},{"type":"Feature","geometry":{"type":"Polygon","coordinates":[[[132.225,33.45],[132.23125,33.45],[132.23125,33.45416666666667],[132.225,33.45416666666667],[132.225,33.45]]]},"properties":{"type":"Feature","mesh_id":"503211481","municipality_code":"38442","municipality":"伊方町","total_population":2,"population_65plus":null,"population_75plus":null,"aging_rate_65plus":null,"aging_rate_75plus":null,"population_status":"2","population_status_target":"503211591","population_aggregation_target":null,"age_65plus_missing":true,"age_75plus_missing":true,"age_quality_flag":"ok","data_completeness":"partial"}},{"type":"Feature","geometry":{"type":"Polygon","coordinates":[[[132.23125,33.45416666666667],[132.23749999999998,33.45416666666667],[132.23749999999998,33.45833333333334],[132.23125,33.45833333333334],[132.23125,33.45416666666667]]]},"properties":{"type":"Feature","mesh_id":"503211484","municipality_code":"38442","municipality":"伊方町","total_population":4,"population_65plus":null,"population_75plus":null,"aging_rate_65plus":null,"aging_rate_75plus":null,"population_status":"2","population_status_target":"503211591","population_aggregation_target":null,"age_65plus_missing":true,"age_75plus_missing":true,"age_quality_flag":"ok","data_completeness":"partial"}},{"type":"Feature","geometry":{"type":"Polygon","coordinates":[[[132.2375,33.45416666666667],[132.24375,33.45416666666667],[132.24375,33.45833333333334],[132.2375,33.45833333333334],[132.2375,33.45416666666667]]]},"properties":{"type":"Feature","mesh_id":"503211492","municipality_code":"38442","municipality":"伊方町","total_population":20,"population_65plus":10,"population_75plus":8,"aging_rate_65plus":0.5,"aging_rate_75plus":0.4,"population_status":"0","population_status_target":null,"population_aggregation_target":null,"age_65plus_missing":false,"age_75plus_missing":false,"age_quality_flag":"ok","data_completeness":"complete"}},{"type":"Feature","geometry":{"type":"Polygon","coordinates":[[[132.24375,33.45],[132.25,33.45],[132.25,33.45416666666667],[132.24375,33.45416666666667],[132.24375,33.45]]]},"properties":{"type":"Feature","mesh_id":"503211493","municipality_code":"38442","municipality":"伊方町","total_population":24,"population_65plus":15,"population_75plus":14,"aging_rate_65plus":0.625,"aging_rate_75plus":0.5833333333333334,"population_status":"0","population_status_target":null,"population_aggregation_target":null,"age_65plus_missing":false,"age_75plus_missing":false,"age_quality_flag":"ok","data_completeness":"complete"}},{"type":"Feature","geometry":{"type":"Polygon","coordinates":[[[132.24375,33.45416666666667],[132.25,33.45416666666667],[132.25,33.45833333333334],[132.24375,33.45833333333334],[132.24375,33.45416666666667]]]},"properties":{"type":"Feature","mesh_id":"503211494","municipality_code":"38442","municipality":"伊方町","total_population":206,"population_65plus":84,"population_75plus":38,"aging_rate_65plus":0.4077669902912621,"aging_rate_75plus":0.18446601941747573,"population_status":"0","population_status_target":null,"population_aggregation_target":null,"age_65plus_missing":false,"age_75plus_missing":false,"age_quality_flag":"ok","data_completeness":"complete"}},{"type":"Feature","geometry":{"type":"Polygon","coordinates":[[[132.2375,33.458333333333336],[132.24375,33.458333333333336],[132.24375,33.462500000000006],[132.2375,33.462500000000006],[132.2375,33.458333333333336]]]},"properties":{"type":"Feature","mesh_id":"503211591","municipality_code":"38442","municipality":"伊方町","total_population":29,"population_65plus":14,"population_75plus":8,"aging_rate_65plus":0.4827586206896552,"aging_rate_75plus":0.27586206896551724,"population_status":"1","population_status_target":null,"population_aggregation_target":"503211481;503211484","age_65plus_missing":false,"age_75plus_missing":false,"age_quality_flag":"ok","data_completeness":"complete"}},{"type":"Feature","geometry":{"type":"Polygon","coordinates":[[[132.2375,33.462500000000006],[132.24375,33.462500000000006],[132.24375,33.466666666666676],[132.2375,33.466666666666676],[132.2375,33.462500000000006]]]},"properties":{"type":"Feature","mesh_id":"503211592","municipality_code":"38442","municipality":"伊方町","total_population":39,"population_65plus":23,"population_75plus":10,"aging_rate_65plus":0.5897435897435898,"aging_rate_75plus":0.2564102564102564,"population_status":"1","population_status_target":null,"population_aggregation_target":"503211594","age_65plus_missing":false,"age_75plus_missing":false,"age_quality_flag":"ok","data_completeness":"complete"}},{"type":"Feature","geometry":{"type":"Polygon","coordinates":[[[132.24375,33.462500000000006],[132.25,33.462500000000006],[132.25,33.466666666666676],[132.24375,33.466666666666676],[132.24375,33.462500000000006]]]},"properties":{"type":"Feature","mesh_id":"503211594","municipality_code":"38442","municipality":"伊方町","total_population":5,"population_65plus":null,"population_75plus":null,"aging_rate_65plus":null,"aging_rate_75plus":null,"population_status":"2","population_status_target":"503211592","population_aggregation_target":null,"age_65plus_missing":true,"age_75plus_missing":true,"age_quality_flag":"ok","data_completeness":"partial"}},{"type":"Feature","geometry":{"type":"Polygon","coordinates":[[[132.25,33.44166666666667],[132.25625,33.44166666666667],[132.25625,33.44583333333334],[132.25,33.44583333333334],[132.25,33.44166666666667]]]},"properties":{"type":"Feature","mesh_id":"503212301","municipality_code":"38442","municipality":"伊方町","total_population":27,"population_65plus":9,"population_75plus":2,"aging_rate_65plus":0.3333333333333333,"aging_rate_75plus":0.07407407407407407,"population_status":"0","population_status_target":null,"population_aggregation_target":null,"age_65plus_missing":false,"age_75plus_missing":false,"age_quality_flag":"ok","data_completeness":"complete"}},{"type":"Feature","geometry":{"type":"Polygon","coordinates":[[[132.25,33.44583333333334],[132.25625,33.44583333333334],[132.25625,33.45000000000001],[132.25,33.45000000000001],[132.25,33.44583333333334]]]},"properties":{"type":"Feature","mesh_id":"503212302","municipality_code":"38442","municipality":"伊方町","total_population":130,"population_65plus":63,"population_75plus":30,"aging_rate_65plus":0.4846153846153846,"aging_rate_75plus":0.23076923076923078,"population_status":"0","population_status_target":null,"population_aggregation_target":null,"age_65plus_missing":false,"age_75plus_missing":false,"age_quality_flag":"ok","data_completeness":"complete"}},{"type":"Feature","geometry":{"type":"Polygon","coordinates":[[[132.2625,33.45],[132.26874999999998,33.45],[132.26874999999998,33.45416666666667],[132.2625,33.45416666666667],[132.2625,33.45]]]},"properties":{"type":"Feature","mesh_id":"503212411","municipality_code":"38442","municipality":"伊方町","total_population":6,"population_65plus":null,"population_75plus":null,"aging_rate_65plus":null,"aging_rate_75plus":null,"population_status":"2","population_status_target":"503212511","population_aggregation_target":null,"age_65plus_missing":true,"age_75plus_missing":true,"age_quality_flag":"ok","data_completeness":"partial"}},{"type":"Feature","geometry":{"type":"Polygon","coordinates":[[[132.28125,33.45416666666667],[132.2875,33.45416666666667],[132.2875,33.45833333333334],[132.28125,33.45833333333334],[132.28125,33.45416666666667]]]},"properties":{"type":"Feature","mesh_id":"503212424","municipality_code":"38442","municipality":"伊方町","total_population":5,"population_65plus":null,"population_75plus":null,"aging_rate_65plus":null,"aging_rate_75plus":null,"population_status":"2","population_status_target":"503212522","population_aggregation_target":null,"age_65plus_missing":true,"age_75plus_missing":true,"age_quality_flag":"ok","data_completeness":"partial"}},{"type":"Feature","geometry":{"type":"Polygon","coordinates":[[[132.2625,33.458333333333336],[132.26874999999998,33.458333333333336],[132.26874999999998,33.462500000000006],[132.2625,33.462500000000006],[132.2625,33.458333333333336]]]},"properties":{"type":"Feature","mesh_id":"503212511","municipality_code":"38442","municipality":"伊方町","total_population":10,"population_65plus":null,"population_75plus":null,"aging_rate_65plus":null,"aging_rate_75plus":null,"population_status":"1","population_status_target":null,"population_aggregation_target":"503212411","age_65plus_missing":true,"age_75plus_missing":true,"age_quality_flag":"inconsistent_with_total","data_completeness":"partial"}},{"type":"Feature","geometry":{"type":"Polygon","coordinates":[[[132.275,33.462500000000006],[132.28125,33.462500000000006],[132.28125,33.466666666666676],[132.275,33.466666666666676],[132.275,33.462500000000006]]]},"properties":{"type":"Feature","mesh_id":"503212522","municipality_code":"38442","municipality":"伊方町","total_population":94,"population_65plus":46,"population_75plus":28,"aging_rate_65plus":0.48936170212765956,"aging_rate_75plus":0.2978723404255319,"population_status":"1","population_status_target":null,"population_aggregation_target":"503212423;503212424","age_65plus_missing":false,"age_75plus_missing":false,"age_quality_flag":"ok","data_completeness":"complete"}},{"type":"Feature","geometry":{"type":"Polygon","coordinates":[[[132.28125,33.462500000000006],[132.2875,33.462500000000006],[132.2875,33.466666666666676],[132.28125,33.466666666666676],[132.28125,33.462500000000006]]]},"properties":{"type":"Feature","mesh_id":"503212524","municipality_code":"38442","municipality":"伊方町","total_population":27,"population_65plus":10,"population_75plus":4,"aging_rate_65plus":0.37037037037037035,"aging_rate_75plus":0.14814814814814814,"population_status":"0","population_status_target":null,"population_aggregation_target":null,"age_65plus_missing":false,"age_75plus_missing":false,"age_quality_flag":"ok","data_completeness":"complete"}},{"type":"Feature","geometry":{"type":"Polygon","coordinates":[[[132.3125,33.458333333333336],[132.31875,33.458333333333336],[132.31875,33.462500000000006],[132.3125,33.462500000000006],[132.3125,33.458333333333336]]]},"properties":{"type":"Feature","mesh_id":"503212551","municipality_code":"38442","municipality":"伊方町","total_population":3,"population_65plus":null,"population_75plus":null,"aging_rate_65plus":null,"aging_rate_75plus":null,"population_status":"2","population_status_target":"503212652","population_aggregation_target":null,"age_65plus_missing":true,"age_75plus_missing":true,"age_quality_flag":"ok","data_completeness":"partial"}},{"type":"Feature","geometry":{"type":"Polygon","coordinates":[[[132.2625,33.46666666666667],[132.26874999999998,33.46666666666667],[132.26874999999998,33.47083333333334],[132.2625,33.47083333333334],[132.2625,33.46666666666667]]]},"properties":{"type":"Feature","mesh_id":"503212611","municipality_code":"38442","municipality":"伊方町","total_population":5,"population_65plus":null,"population_75plus":null,"aging_rate_65plus":null,"aging_rate_75plus":null,"population_status":"2","population_status_target":"503212613","population_aggregation_target":null,"age_65plus_missing":true,"age_75plus_missing":true,"age_quality_flag":"ok","data_completeness":"partial"}},{"type":"Feature","geometry":{"type":"Polygon","coordinates":[[[132.26874999999998,33.46666666666667],[132.27499999999998,33.46666666666667],[132.27499999999998,33.47083333333334],[132.26874999999998,33.47083333333334],[132.26874999999998,33.46666666666667]]]},"properties":{"type":"Feature","mesh_id":"503212613","municipality_code":"38442","municipality":"伊方町","total_population":101,"population_65plus":44,"population_75plus":27,"aging_rate_65plus":0.43564356435643564,"aging_rate_75plus":0.26732673267326734,"population_status":"1","population_status_target":null,"population_aggregation_target":"503212611","age_65plus_missing":false,"age_75plus_missing":false,"age_quality_flag":"ok","data_completeness":"complete"}},{"type":"Feature","geometry":{"type":"Polygon","coordinates":[[[132.26874999999998,33.47083333333334],[132.27499999999998,33.47083333333334],[132.27499999999998,33.47500000000001],[132.26874999999998,33.47500000000001],[132.26874999999998,33.47083333333334]]]},"properties":{"type":"Feature","mesh_id":"503212614","municipality_code":"38442","municipality":"伊方町","total_population":20,"population_65plus":4,"population_75plus":3,"aging_rate_65plus":0.2,"aging_rate_75plus":0.15,"population_status":"0","population_status_target":null,"population_aggregation_target":null,"age_65plus_missing":false,"age_75plus_missing":false,"age_quality_flag":"ok","data_completeness":"complete"}},{"type":"Feature","geometry":{"type":"Polygon","coordinates":[[[132.275,33.47083333333334],[132.28125,33.47083333333334],[132.28125,33.47500000000001],[132.275,33.47500000000001],[132.275,33.47083333333334]]]},"properties":{"type":"Feature","mesh_id":"503212622","municipality_code":"38442","municipality":"伊方町","total_population":47,"population_65plus":30,"population_75plus":15,"aging_rate_65plus":0.6382978723404256,"aging_rate_75plus":0.3191489361702128,"population_status":"1","population_status_target":null,"population_aggregation_target":"503212624","age_65plus_missing":false,"age_75plus_missing":false,"age_quality_flag":"ok","data_completeness":"complete"}},{"type":"Feature","geometry":{"type":"Polygon","coordinates":[[[132.28125,33.46666666666667],[132.2875,33.46666666666667],[132.2875,33.47083333333334],[132.28125,33.47083333333334],[132.28125,33.46666666666667]]]},"properties":{"type":"Feature","mesh_id":"503212623","municipality_code":"38442","municipality":"伊方町","total_population":41,"population_65plus":17,"population_75plus":7,"aging_rate_65plus":0.4146341463414634,"aging_rate_75plus":0.17073170731707318,"population_status":"0","population_status_target":null,"population_aggregation_target":null,"age_65plus_missing":false,"age_75plus_missing":false,"age_quality_flag":"ok","data_completeness":"complete"}},{"type":"Feature","geometry":{"type":"Polygon","coordinates":[[[132.28125,33.47083333333334],[132.2875,33.47083333333334],[132.2875,33.47500000000001],[132.28125,33.47500000000001],[132.28125,33.47083333333334]]]},"properties":{"type":"Feature","mesh_id":"503212624","municipality_code":"38442","municipality":"伊方町","total_population":2,"population_65plus":null,"population_75plus":null,"aging_rate_65plus":null,"aging_rate_75plus":null,"population_status":"2","population_status_target":"503212622","population_aggregation_target":null,"age_65plus_missing":true,"age_75plus_missing":true,"age_quality_flag":"ok","data_completeness":"partial"}},{"type":"Feature","geometry":{"type":"Polygon","coordinates":[[[132.2875,33.46666666666667],[132.29375,33.46666666666667],[132.29375,33.47083333333334],[132.2875,33.47083333333334],[132.2875,33.46666666666667]]]},"properties":{"type":"Feature","mesh_id":"503212631","municipality_code":"38442","municipality":"伊方町","total_population":9,"population_65plus":3,"population_75plus":2,"aging_rate_65plus":0.3333333333333333,"aging_rate_75plus":0.2222222222222222,"population_status":"0","population_status_target":null,"population_aggregation_target":null,"age_65plus_missing":false,"age_75plus_missing":false,"age_quality_flag":"ok","data_completeness":"complete"}},{"type":"Feature","geometry":{"type":"Polygon","coordinates":[[[132.2875,33.47083333333334],[132.29375,33.47083333333334],[132.29375,33.47500000000001],[132.2875,33.47500000000001],[132.2875,33.47083333333334]]]},"properties":{"type":"Feature","mesh_id":"503212632","municipality_code":"38442","municipality":"伊方町","total_population":20,"population_65plus":13,"population_75plus":6,"aging_rate_65plus":0.65,"aging_rate_75plus":0.3,"population_status":"0","population_status_target":null,"population_aggregation_target":null,"age_65plus_missing":false,"age_75plus_missing":false,"age_quality_flag":"ok","data_completeness":"complete"}},{"type":"Feature","geometry":{"type":"Polygon","coordinates":[[[132.29375,33.47083333333334],[132.29999999999998,33.47083333333334],[132.29999999999998,33.47500000000001],[132.29375,33.47500000000001],[132.29375,33.47083333333334]]]},"properties":{"type":"Feature","mesh_id":"503212634","municipality_code":"38442","municipality":"伊方町","total_population":29,"population_65plus":21,"population_75plus":9,"aging_rate_65plus":0.7241379310344828,"aging_rate_75plus":0.3103448275862069,"population_status":"1","population_status_target":null,"population_aggregation_target":"503212633","age_65plus_missing":false,"age_75plus_missing":false,"age_quality_flag":"ok","data_completeness":"complete"}},{"type":"Feature","geometry":{"type":"Polygon","coordinates":[[[132.30625,33.46666666666667],[132.3125,33.46666666666667],[132.3125,33.47083333333334],[132.30625,33.47083333333334],[132.30625,33.46666666666667]]]},"properties":{"type":"Feature","mesh_id":"503212643","municipality_code":"38442","municipality":"伊方町","total_population":58,"population_65plus":26,"population_75plus":13,"aging_rate_65plus":0.4482758620689655,"aging_rate_75plus":0.22413793103448276,"population_status":"0","population_status_target":null,"population_aggregation_target":null,"age_65plus_missing":false,"age_75plus_missing":false,"age_quality_flag":"ok","data_completeness":"complete"}},{"type":"Feature","geometry":{"type":"Polygon","coordinates":[[[132.30625,33.47083333333334],[132.3125,33.47083333333334],[132.3125,33.47500000000001],[132.30625,33.47500000000001],[132.30625,33.47083333333334]]]},"properties":{"type":"Feature","mesh_id":"503212644","municipality_code":"38442","municipality":"伊方町","total_population":154,"population_65plus":78,"population_75plus":43,"aging_rate_65plus":0.5064935064935064,"aging_rate_75plus":0.2792207792207792,"population_status":"0","population_status_target":null,"population_aggregation_target":null,"age_65plus_missing":false,"age_75plus_missing":false,"age_quality_flag":"ok","data_completeness":"complete"}},{"type":"Feature","geometry":{"type":"Polygon","coordinates":[[[132.3125,33.47083333333334],[132.31875,33.47083333333334],[132.31875,33.47500000000001],[132.3125,33.47500000000001],[132.3125,33.47083333333334]]]},"properties":{"type":"Feature","mesh_id":"503212652","municipality_code":"38442","municipality":"伊方町","total_population":108,"population_65plus":55,"population_75plus":35,"aging_rate_65plus":0.5092592592592593,"aging_rate_75plus":0.32407407407407407,"population_status":"1","population_status_target":null,"population_aggregation_target":"503212551","age_65plus_missing":false,"age_75plus_missing":false,"age_quality_flag":"ok","data_completeness":"complete"}},{"type":"Feature","geometry":{"type":"Polygon","coordinates":[[[132.31875,33.47083333333334],[132.325,33.47083333333334],[132.325,33.47500000000001],[132.31875,33.47500000000001],[132.31875,33.47083333333334]]]},"properties":{"type":"Feature","mesh_id":"503212654","municipality_code":"38442","municipality":"伊方町","total_population":176,"population_65plus":87,"population_75plus":55,"aging_rate_65plus":0.4943181818181818,"aging_rate_75plus":0.3125,"population_status":"1","population_status_target":null,"population_aggregation_target":"503212663","age_65plus_missing":false,"age_75plus_missing":false,"age_quality_flag":"ok","data_completeness":"complete"}},{"type":"Feature","geometry":{"type":"Polygon","coordinates":[[[132.36875,33.47083333333334],[132.375,33.47083333333334],[132.375,33.47500000000001],[132.36875,33.47500000000001],[132.36875,33.47083333333334]]]},"properties":{"type":"Feature","mesh_id":"503212694","municipality_code":"38442","municipality":"伊方町","total_population":179,"population_65plus":76,"population_75plus":39,"aging_rate_65plus":0.4245810055865922,"aging_rate_75plus":0.21787709497206703,"population_status":"0","population_status_target":null,"population_aggregation_target":null,"age_65plus_missing":false,"age_75plus_missing":false,"age_quality_flag":"ok","data_completeness":"complete"}},{"type":"Feature","geometry":{"type":"Polygon","coordinates":[[[132.3,33.475],[132.30625,33.475],[132.30625,33.47916666666667],[132.3,33.47916666666667],[132.3,33.475]]]},"properties":{"type":"Feature","mesh_id":"503212741","municipality_code":"38442","municipality":"伊方町","total_population":119,"population_65plus":50,"population_75plus":28,"aging_rate_65plus":0.42016806722689076,"aging_rate_75plus":0.23529411764705882,"population_status":"0","population_status_target":null,"population_aggregation_target":null,"age_65plus_missing":false,"age_75plus_missing":false,"age_quality_flag":"ok","data_completeness":"complete"}},{"type":"Feature","geometry":{"type":"Polygon","coordinates":[[[132.3,33.47916666666667],[132.30625,33.47916666666667],[132.30625,33.48333333333334],[132.3,33.48333333333334],[132.3,33.47916666666667]]]},"properties":{"type":"Feature","mesh_id":"503212742","municipality_code":"38442","municipality":"伊方町","total_population":184,"population_65plus":69,"population_75plus":30,"aging_rate_65plus":0.375,"aging_rate_75plus":0.16304347826086957,"population_status":"1","population_status_target":null,"population_aggregation_target":"503212743","age_65plus_missing":false,"age_75plus_missing":false,"age_quality_flag":"ok","data_completeness":"complete"}},{"type":"Feature","geometry":{"type":"Polygon","coordinates":[[[132.30625,33.475],[132.3125,33.475],[132.3125,33.47916666666667],[132.30625,33.47916666666667],[132.30625,33.475]]]},"properties":{"type":"Feature","mesh_id":"503212743","municipality_code":"38442","municipality":"伊方町","total_population":13,"population_65plus":null,"population_75plus":null,"aging_rate_65plus":null,"aging_rate_75plus":null,"population_status":"2","population_status_target":"503212742","population_aggregation_target":null,"age_65plus_missing":true,"age_75plus_missing":true,"age_quality_flag":"ok","data_completeness":"partial"}},{"type":"Feature","geometry":{"type":"Polygon","coordinates":[[[132.3125,33.475],[132.31875,33.475],[132.31875,33.47916666666667],[132.3125,33.47916666666667],[132.3125,33.475]]]},"properties":{"type":"Feature","mesh_id":"503212751","municipality_code":"38442","municipality":"伊方町","total_population":184,"population_65plus":113,"population_75plus":47,"aging_rate_65plus":0.6141304347826086,"aging_rate_75plus":0.2554347826086957,"population_status":"1","population_status_target":null,"population_aggregation_target":"503212753","age_65plus_missing":false,"age_75plus_missing":false,"age_quality_flag":"ok","data_completeness":"complete"}},{"type":"Feature","geometry":{"type":"Polygon","coordinates":[[[132.31875,33.475],[132.325,33.475],[132.325,33.47916666666667],[132.31875,33.47916666666667],[132.31875,33.475]]]},"properties":{"type":"Feature","mesh_id":"503212753","municipality_code":"38442","municipality":"伊方町","total_population":8,"population_65plus":null,"population_75plus":null,"aging_rate_65plus":null,"aging_rate_75plus":null,"population_status":"2","population_status_target":"503212751","population_aggregation_target":null,"age_65plus_missing":true,"age_75plus_missing":true,"age_quality_flag":"ok","data_completeness":"partial"}},{"type":"Feature","geometry":{"type":"Polygon","coordinates":[[[132.325,33.475],[132.33124999999998,33.475],[132.33124999999998,33.47916666666667],[132.325,33.47916666666667],[132.325,33.475]]]},"properties":{"type":"Feature","mesh_id":"503212761","municipality_code":"38442","municipality":"伊方町","total_population":2,"population_65plus":null,"population_75plus":null,"aging_rate_65plus":null,"aging_rate_75plus":null,"population_status":"2","population_status_target":"503212764","population_aggregation_target":null,"age_65plus_missing":true,"age_75plus_missing":true,"age_quality_flag":"ok","data_completeness":"partial"}},{"type":"Feature","geometry":{"type":"Polygon","coordinates":[[[132.33124999999998,33.47916666666667],[132.33749999999998,33.47916666666667],[132.33749999999998,33.48333333333334],[132.33124999999998,33.48333333333334],[132.33124999999998,33.47916666666667]]]},"properties":{"type":"Feature","mesh_id":"503212764","municipality_code":"38442","municipality":"伊方町","total_population":21,"population_65plus":4,"population_75plus":0,"aging_rate_65plus":0.19047619047619047,"aging_rate_75plus":0.0,"population_status":"1","population_status_target":null,"population_aggregation_target":"503212761","age_65plus_missing":false,"age_75plus_missing":false,"age_quality_flag":"ok","data_completeness":"complete"}},{"type":"Feature","geometry":{"type":"Polygon","coordinates":[[[132.34375,33.475],[132.35,33.475],[132.35,33.47916666666667],[132.34375,33.47916666666667],[132.34375,33.475]]]},"properties":{"type":"Feature","mesh_id":"503212773","municipality_code":"38442","municipality":"伊方町","total_population":16,"population_65plus":11,"population_75plus":2,"aging_rate_65plus":0.6875,"aging_rate_75plus":0.125,"population_status":"1","population_status_target":null,"population_aggregation_target":"503212774","age_65plus_missing":false,"age_75plus_missing":false,"age_quality_flag":"ok","data_completeness":"complete"}},{"type":"Feature","geometry":{"type":"Polygon","coordinates":[[[132.34375,33.47916666666667],[132.35,33.47916666666667],[132.35,33.48333333333334],[132.34375,33.48333333333334],[132.34375,33.47916666666667]]]},"properties":{"type":"Feature","mesh_id":"503212774","municipality_code":"38442","municipality":"伊方町","total_population":8,"population_65plus":null,"population_75plus":null,"aging_rate_65plus":null,"aging_rate_75plus":null,"population_status":"2","population_status_target":"503212773","population_aggregation_target":null,"age_65plus_missing":true,"age_75plus_missing":true,"age_quality_flag":"ok","data_completeness":"partial"}},{"type":"Feature","geometry":{"type":"Polygon","coordinates":[[[132.3625,33.47916666666667],[132.36875,33.47916666666667],[132.36875,33.48333333333334],[132.3625,33.48333333333334],[132.3625,33.47916666666667]]]},"properties":{"type":"Feature","mesh_id":"503212792","municipality_code":"38442","municipality":"伊方町","total_population":145,"population_65plus":66,"population_75plus":35,"aging_rate_65plus":0.45517241379310347,"aging_rate_75plus":0.2413793103448276,"population_status":"0","population_status_target":null,"population_aggregation_target":null,"age_65plus_missing":false,"age_75plus_missing":false,"age_quality_flag":"ok","data_completeness":"complete"}},{"type":"Feature","geometry":{"type":"Polygon","coordinates":[[[132.36875,33.475],[132.375,33.475],[132.375,33.47916666666667],[132.36875,33.47916666666667],[132.36875,33.475]]]},"properties":{"type":"Feature","mesh_id":"503212793","municipality_code":"38442","municipality":"伊方町","total_population":148,"population_65plus":59,"population_75plus":25,"aging_rate_65plus":0.39864864864864863,"aging_rate_75plus":0.16891891891891891,"population_status":"1","population_status_target":null,"population_aggregation_target":"503212791","age_65plus_missing":false,"age_75plus_missing":false,"age_quality_flag":"ok","data_completeness":"complete"}},{"type":"Feature","geometry":{"type":"Polygon","coordinates":[[[132.325,33.48750000000001],[132.33124999999998,33.48750000000001],[132.33124999999998,33.49166666666668],[132.325,33.49166666666668],[132.325,33.48750000000001]]]},"properties":{"type":"Feature","mesh_id":"503212862","municipality_code":"38442","municipality":"伊方町","total_population":31,"population_65plus":12,"population_75plus":3,"aging_rate_65plus":0.3870967741935484,"aging_rate_75plus":0.0967741935483871,"population_status":"0","population_status_target":null,"population_aggregation_target":null,"age_65plus_missing":false,"age_75plus_missing":false,"age_quality_flag":"ok","data_completeness":"complete"}},{"type":"Feature","geometry":{"type":"Polygon","coordinates":[[[132.3375,33.48333333333334],[132.34375,33.48333333333334],[132.34375,33.48750000000001],[132.3375,33.48750000000001],[132.3375,33.48333333333334]]]},"properties":{"type":"Feature","mesh_id":"503212871","municipality_code":"38442","municipality":"伊方町","total_population":323,"population_65plus":167,"population_75plus":85,"aging_rate_65plus":0.5170278637770898,"aging_rate_75plus":0.2631578947368421,"population_status":"0","population_status_target":null,"population_aggregation_target":null,"age_65plus_missing":false,"age_75plus_missing":false,"age_quality_flag":"ok","data_completeness":"complete"}},{"type":"Feature","geometry":{"type":"Polygon","coordinates":[[[132.3375,33.48750000000001],[132.34375,33.48750000000001],[132.34375,33.49166666666668],[132.3375,33.49166666666668],[132.3375,33.48750000000001]]]},"properties":{"type":"Feature","mesh_id":"503212872","municipality_code":"38442","municipality":"伊方町","total_population":22,"population_65plus":6,"population_75plus":4,"aging_rate_65plus":0.2727272727272727,"aging_rate_75plus":0.18181818181818182,"population_status":"0","population_status_target":null,"population_aggregation_target":null,"age_65plus_missing":false,"age_75plus_missing":false,"age_quality_flag":"ok","data_completeness":"complete"}},{"type":"Feature","geometry":{"type":"Polygon","coordinates":[[[132.34375,33.48750000000001],[132.35,33.48750000000001],[132.35,33.49166666666668],[132.34375,33.49166666666668],[132.34375,33.48750000000001]]]},"properties":{"type":"Feature","mesh_id":"503212874","municipality_code":"38442","municipality":"伊方町","total_population":202,"population_65plus":97,"population_75plus":46,"aging_rate_65plus":0.4801980198019802,"aging_rate_75plus":0.22772277227722773,"population_status":"0","population_status_target":null,"population_aggregation_target":null,"age_65plus_missing":false,"age_75plus_missing":false,"age_quality_flag":"ok","data_completeness":"complete"}},{"type":"Feature","geometry":{"type":"Polygon","coordinates":[[[132.35,33.48333333333334],[132.35625,33.48333333333334],[132.35625,33.48750000000001],[132.35,33.48750000000001],[132.35,33.48333333333334]]]},"properties":{"type":"Feature","mesh_id":"503212881","municipality_code":"38442","municipality":"伊方町","total_population":126,"population_65plus":21,"population_75plus":14,"aging_rate_65plus":0.16666666666666666,"aging_rate_75plus":0.1111111111111111,"population_status":"0","population_status_target":null,"population_aggregation_target":null,"age_65plus_missing":false,"age_75plus_missing":false,"age_quality_flag":"ok","data_completeness":"complete"}},{"type":"Feature","geometry":{"type":"Polygon","coordinates":[[[132.35,33.48750000000001],[132.35625,33.48750000000001],[132.35625,33.49166666666668],[132.35,33.49166666666668],[132.35,33.48750000000001]]]},"properties":{"type":"Feature","mesh_id":"503212882","municipality_code":"38442","municipality":"伊方町","total_population":82,"population_65plus":17,"population_75plus":3,"aging_rate_65plus":0.2073170731707317,"aging_rate_75plus":0.036585365853658534,"population_status":"0","population_status_target":null,"population_aggregation_target":null,"age_65plus_missing":false,"age_75plus_missing":false,"age_quality_flag":"ok","data_completeness":"complete"}},{"type":"Feature","geometry":{"type":"Polygon","coordinates":[[[132.35625,33.48333333333334],[132.36249999999998,33.48333333333334],[132.36249999999998,33.48750000000001],[132.35625,33.48750000000001],[132.35625,33.48333333333334]]]},"properties":{"type":"Feature","mesh_id":"503212883","municipality_code":"38442","municipality":"伊方町","total_population":638,"population_65plus":269,"population_75plus":186,"aging_rate_65plus":0.4216300940438871,"aging_rate_75plus":0.29153605015673983,"population_status":"0","population_status_target":null,"population_aggregation_target":null,"age_65plus_missing":false,"age_75plus_missing":false,"age_quality_flag":"ok","data_completeness":"complete"}},{"type":"Feature","geometry":{"type":"Polygon","coordinates":[[[132.35625,33.48750000000001],[132.36249999999998,33.48750000000001],[132.36249999999998,33.49166666666668],[132.35625,33.49166666666668],[132.35625,33.48750000000001]]]},"properties":{"type":"Feature","mesh_id":"503212884","municipality_code":"38442","municipality":"伊方町","total_population":289,"population_65plus":35,"population_75plus":13,"aging_rate_65plus":0.12110726643598616,"aging_rate_75plus":0.04498269896193772,"population_status":"0","population_status_target":null,"population_aggregation_target":null,"age_65plus_missing":false,"age_75plus_missing":false,"age_quality_flag":"ok","data_completeness":"complete"}},{"type":"Feature","geometry":{"type":"Polygon","coordinates":[[[132.36875,33.48333333333334],[132.375,33.48333333333334],[132.375,33.48750000000001],[132.36875,33.48750000000001],[132.36875,33.48333333333334]]]},"properties":{"type":"Feature","mesh_id":"503212893","municipality_code":"38442","municipality":"伊方町","total_population":8,"population_65plus":null,"population_75plus":null,"aging_rate_65plus":null,"aging_rate_75plus":null,"population_status":"2","population_status_target":"503212982","population_aggregation_target":null,"age_65plus_missing":true,"age_75plus_missing":true,"age_quality_flag":"ok","data_completeness":"partial"}},{"type":"Feature","geometry":{"type":"Polygon","coordinates":[[[132.33124999999998,33.491666666666674],[132.33749999999998,33.491666666666674],[132.33749999999998,33.495833333333344],[132.33124999999998,33.495833333333344],[132.33124999999998,33.491666666666674]]]},"properties":{"type":"Feature","mesh_id":"503212963","municipality_code":"38442","municipality":"伊方町","total_population":63,"population_65plus":38,"population_75plus":27,"aging_rate_65plus":0.6031746031746031,"aging_rate_75plus":0.42857142857142855,"population_status":"1","population_status_target":null,"population_aggregation_target":"503212964","age_65plus_missing":false,"age_75plus_missing":false,"age_quality_flag":"ok","data_completeness":"complete"}},{"type":"Feature","geometry":{"type":"Polygon","coordinates":[[[132.33124999999998,33.495833333333344],[132.33749999999998,33.495833333333344],[132.33749999999998,33.500000000000014],[132.33124999999998,33.500000000000014],[132.33124999999998,33.495833333333344]]]},"properties":{"type":"Feature","mesh_id":"503212964","municipality_code":"38442","municipality":"伊方町","total_population":4,"population_65plus":null,"population_75plus":null,"aging_rate_65plus":null,"aging_rate_75plus":null,"population_status":"2","population_status_target":"503212963","population_aggregation_target":null,"age_65plus_missing":true,"age_75plus_missing":true,"age_quality_flag":"ok","data_completeness":"partial"}},{"type":"Feature","geometry":{"type":"Polygon","coordinates":[[[132.35,33.495833333333344],[132.35625,33.495833333333344],[132.35625,33.500000000000014],[132.35,33.500000000000014],[132.35,33.495833333333344]]]},"properties":{"type":"Feature","mesh_id":"503212982","municipality_code":"38442","municipality":"伊方町","total_population":226,"population_65plus":64,"population_75plus":36,"aging_rate_65plus":0.2831858407079646,"aging_rate_75plus":0.1592920353982301,"population_status":"1","population_status_target":null,"population_aggregation_target":"503212893","age_65plus_missing":false,"age_75plus_missing":false,"age_quality_flag":"ok","data_completeness":"complete"}},{"type":"Feature","geometry":{"type":"Polygon","coordinates":[[[132.3625,33.491666666666674],[132.36875,33.491666666666674],[132.36875,33.495833333333344],[132.3625,33.495833333333344],[132.3625,33.491666666666674]]]},"properties":{"type":"Feature","mesh_id":"503212991","municipality_code":"38442","municipality":"伊方町","total_population":132,"population_65plus":55,"population_75plus":22,"aging_rate_65plus":0.4166666666666667,"aging_rate_75plus":0.16666666666666666,"population_status":"0","population_status_target":null,"population_aggregation_target":null,"age_65plus_missing":false,"age_75plus_missing":false,"age_quality_flag":"ok","data_completeness":"complete"}},{"type":"Feature","geometry":{"type":"Polygon","coordinates":[[[132.3625,33.495833333333344],[132.36875,33.495833333333344],[132.36875,33.500000000000014],[132.3625,33.500000000000014],[132.3625,33.495833333333344]]]},"properties":{"type":"Feature","mesh_id":"503212992","municipality_code":"38442","municipality":"伊方町","total_population":15,"population_65plus":9,"population_75plus":7,"aging_rate_65plus":0.6,"aging_rate_75plus":0.4666666666666667,"population_status":"0","population_status_target":null,"population_aggregation_target":null,"age_65plus_missing":false,"age_75plus_missing":false,"age_quality_flag":"ok","data_completeness":"complete"}},{"type":"Feature","geometry":{"type":"Polygon","coordinates":[[[132.3375,33.5],[132.34375,33.5],[132.34375,33.50416666666667],[132.3375,33.50416666666667],[132.3375,33.5]]]},"properties":{"type":"Feature","mesh_id":"503222071","municipality_code":"38442","municipality":"伊方町","total_population":44,"population_65plus":28,"population_75plus":16,"aging_rate_65plus":0.6363636363636364,"aging_rate_75plus":0.36363636363636365,"population_status":"1","population_status_target":null,"population_aggregation_target":"503222061","age_65plus_missing":false,"age_75plus_missing":false,"age_quality_flag":"ok","data_completeness":"complete"}}]}